Name,Street,City,PostalCode,Country,latitude,longitude,GPS
Dunkin Donuts,1 Airport Rd,,,US,42.9273,-71.44903,"42.9273,-71.44903"
Dunkin Donuts,1 Bow St,,,US,42.37223,-71.11567,"42.37223,-71.11567"
Dunkin Donuts,1 Broadway,,,US,42.36232,-71.08323,"42.36232,-71.08323"
Dunkin Donuts,1 Central Square,,,US,42.46392,-70.94389,"42.46392,-70.94389"
Dunkin Donuts,1 Congress St,,,US,42.36131,-71.05784,"42.36131,-71.05784"
Dunkin Donuts,1 Dodge St,,,US,42.57199,-70.89307,"42.57199,-70.89307"
Dunkin Donuts,1 Hall Farm Rd,,,US,42.85463,-71.19612,"42.85463,-71.19612"
Dunkin Donuts,1 Hospital Dr,,,US,42.64534,-71.30037,"42.64534,-71.30037"
Dunkin Donuts,1 Mohawk Dr,,,US,42.84759,-71.36005,"42.84759,-71.36005"
Dunkin Donuts,1 PLACE VILLE-MARIE, MONTREAL, QC H3B3Y1,Canada,45.5018,-73.5676,"45.5018,-73.5676"
Dunkin Donuts,1 Summer St,,,US,42.35516,-71.06055,"42.35516,-71.06055"
Dunkin Donuts,1 White St,,,US,42.38871,-71.11895,"42.38871,-71.11895"
Dunkin Donuts,10 Winthrop Sq,,,US,42.35516,-71.05774,"42.35516,-71.05774"
Dunkin Donuts,10 Woburn St,,,US,42.44622,-71.22198,"42.44622,-71.22198"
Dunkin Donuts,100 Atlantic Ave,,,US,42.51734,-71.14026,"42.51734,-71.14026"
Dunkin Donuts,100 Cambridgeside Place,,,US,42.36714,-71.07613,"42.36714,-71.07613"
Dunkin Donuts,100 City Hall Plaza,,,US,42.35914,-71.05954,"42.35914,-71.05954"
Dunkin Donuts,100 Eddy Rd,,,US,42.99731,-71.47516,"42.99731,-71.47516"
Dunkin Donuts,100 Marston St,,,US,42.71191,-71.13983,"42.71191,-71.13983"
Dunkin Donuts,100 Mast Rd,,,US,43.01475,-71.5624,"43.01475,-71.5624"
Dunkin Donuts,100 Powdermill Rd,,,US,42.44145,-71.42852,"42.44145,-71.42852"
Dunkin Donuts,100 Shaws Ln,,,US,42.99736,-70.92699,"42.99736,-70.92699"
Dunkin Donuts,1000 Osgood St,,,US,42.7135,-71.11832,"42.7135,-71.11832"
Dunkin Donuts,1001 Cambridge St. Shell,,,US,42.37445,-71.10581,"42.37445,-71.10581"
Dunkin Donuts,1001 Central St,,,US,42.49895,-71.74509,"42.49895,-71.74509"
Dunkin Donuts,1008 Beacon St,,,US,42.34626,-71.1074,"42.34626,-71.1074"
Dunkin Donuts,1008 W Hebron Pkwy,,,US,33.02077,-96.9162,"33.02077,-96.9162"
Dunkin Donuts,101 Broadway,,,US,42.40986,-71.13952,"42.40986,-71.13952"
Dunkin Donuts,101 Loudon Rd,,,US,43.21281,-71.51454,"43.21281,-71.51454"
Dunkin Donuts,101 Route 101,,,US,42.94913,-71.51242,"42.94913,-71.51242"
Dunkin Donuts,101 Summer St.,,,US,42.35352,-71.058,"42.35352,-71.058"
Dunkin Donuts,1015 BOUL. VACHON N., SAINTE MARIE DE BEAUCE, QC G6E1M3,Canada,46.4462,-71.0272,"46.4462,-71.0272"
Dunkin Donuts,1015 Elm Street,,,US,42.99344,-71.46292,"42.99344,-71.46292"
Dunkin Donuts,1020 Commonwealth Ave,,,US,42.35156,-71.12171,"42.35156,-71.12171"
Dunkin Donuts,1020 RUE PRINCIPALE, GRANBY, QC J2J2N7,Canada,45.41658,-72.76043,"45.41658,-72.76043"
Dunkin Donuts,1022 S Willow St,,,US,42.96217,-71.44008,"42.96217,-71.44008"
Dunkin Donuts,103 Broad St,,,US,42.76973,-71.49149,"42.76973,-71.49149"
Dunkin Donuts,103 Broadway,,,US,42.70586,-71.16882,"42.70586,-71.16882"
Dunkin Donuts,103 Eastern Ave,,,US,42.62234,-70.64365,"42.62234,-70.64365"
Dunkin Donuts,104 Portsmouth Ave,,,US,43.01676,-70.91639,"43.01676,-70.91639"
Dunkin Donuts,1040 Blvd Des Laurentides,LAVAL,QC H7G2W1,Canada,45.57513,-73.69745,"45.57513,-73.69745"
Dunkin Donuts,105 Chelmsford St,,,US,42.60262,-71.34595,"42.60262,-71.34595"
Dunkin Donuts,105 North St,,,US,42.5263,-70.90096,"42.5263,-70.90096"
Dunkin Donuts,1050 LABELLE BLVD, ST JEROME, QC J7Z5N6,Canada,45.79371,-74.00856,"45.79371,-74.00856"
Dunkin Donuts,106 Cambridge St,,,US,42.36105,-71.06309,"42.36105,-71.06309"
Dunkin Donuts,10629 N Scottsdale Rd,,,US,33.58306,-111.926,"33.58306,-111.926"
Dunkin Donuts,1069 Main St,,,US,42.4327,-71.68632,"42.4327,-71.68632"
Dunkin Donuts,108 KENNEDY BLVD, LEVIS, QC G6V6C9,Canada,46.78676,-71.16431,"46.78676,-71.16431"
Dunkin Donuts,108 Newbury St,,,US,42.53319,-70.99106,"42.53319,-70.99106"
Dunkin Donuts,1081 Groham St,,,US,42.62615,-71.30753,"42.62615,-71.30753"
Dunkin Donuts,1085 S Saint Francis Dr,,,US,35.6744,-105.9535,"35.6744,-105.9535"
Dunkin Donuts,1089 Concord Tpke,,,US,42.44664,-71.35872,"42.44664,-71.35872"
Dunkin Donuts,109 Daniel Webster Hwy,,,US,42.72865,-71.44829,"42.72865,-71.44829"
Dunkin Donuts,11 Austin St,,,US,42.37525,-71.06521,"42.37525,-71.06521"
Dunkin Donuts,11 Mountain Street, Granby, QC J2G6R9,Canada,45.3988,-72.72007,"45.3988,-72.72007"
Dunkin Donuts,110 Main St,,,US,42.5068,-71.10401,"42.5068,-71.10401"
Dunkin Donuts,110 RANG SAINT-FRANCOIS, TERREBONNE, QC J6Y1J5,Canada,45.6877,-73.78426,"45.6877,-73.78426"
Dunkin Donuts,1100 Chester Pike,,,US,39.90868,-75.27399,"39.90868,-75.27399"
Dunkin Donuts,1100 Mass Ave,,,US,42.32612,-71.06616,"42.32612,-71.06616"
Dunkin Donuts,1105 Chestnut St,,,US,39.95034,-75.15882,"39.95034,-75.15882"
Dunkin Donuts,1105 N Yarbrough Dr,,,US,31.75492,-106.3434,"31.75492,-106.3434"
Dunkin Donuts,111 Causeway St,,,US,42.36523,-71.06139,"42.36523,-71.06139"
Dunkin Donuts,111 State Street,,,US,42.35898,-71.05472,"42.35898,-71.05472"
Dunkin Donuts,1113 Market St,,,US,39.95188,-75.15861,"39.95188,-75.15861"
Dunkin Donuts,112 Elliott St,,,US,42.55497,-70.88353,"42.55497,-70.88353"
Dunkin Donuts,112 Mall Rd,,,US,42.48549,-71.21599,"42.48549,-71.21599"
Dunkin Donuts,1131 Tremont St,,,US,42.33513,-71.08858,"42.33513,-71.08858"
Dunkin Donuts,1138 Washington St,,,US,42.34377,-71.0659,"42.34377,-71.0659"
Dunkin Donuts,1146 E Main St,,,US,33.41538,-111.806,"33.41538,-111.806"
Dunkin Donuts,115 Forsyth St.,,,US,42.33783,-71.09007,"42.33783,-71.09007"
Dunkin Donuts,116 Lewis St,,,US,42.46577,-70.93017,"42.46577,-70.93017"
Dunkin Donuts,116 Main St,,,US,42.66511,-71.57857,"42.66511,-71.57857"
Dunkin Donuts,1165 W. Baltimore Pike,,,US,39.91319,-75.43729,"39.91319,-75.43729"
Dunkin Donuts,117 Great Rd,,,US,42.43313,-71.48555,"42.43313,-71.48555"
Dunkin Donuts,117 Newbury St,,,US,42.53457,-70.98953,"42.53457,-70.98953"
Dunkin Donuts,117 S 16th St,,,US,39.95055,-75.1672,"39.95055,-75.1672"
Dunkin Donuts,117 Thoreau Street,,,US,42.45645,-71.35655,"42.45645,-71.35655"
Dunkin Donuts,117 Thoreau Street, Concord, MA 01742,Canada,42.45635,-71.35664,"42.45635,-71.35664"
Dunkin Donuts,1170 AUTOROUTE 13, LAVAL, QC H7X5C9,Canada,45.55156,-73.74463,"45.55156,-73.74463"
Dunkin Donuts,11725 Bustleton Ave.,,,US,40.1192,-75.01763,"40.1192,-75.01763"
Dunkin Donuts,119 East Hollis St.,,,US,42.76135,-71.44941,"42.76135,-71.44941"
Dunkin Donuts,119 Plaistow Rd,,,US,42.83985,-71.10756,"42.83985,-71.10756"
Dunkin Donuts,1191 Main St,,,US,42.45634,-71.39148,"42.45634,-71.39148"
Dunkin Donuts,1198 Mammoth Rd,,,US,42.68307,-71.3548,"42.68307,-71.3548"
Dunkin Donuts,12 Nashua Road,,,US,42.87287,-71.33773,"42.87287,-71.33773"
Dunkin Donuts,12 Ocean Blvd,,,US,42.87212,-70.81812,"42.87212,-70.81812"
Dunkin Donuts,12 Washington St,,,US,42.32506,-71.2594,"42.32506,-71.2594"
Dunkin Donuts,1200 Boul. Des Seigneurs, Terrebonne, QC J6W3W4,Canada,45.70039,-73.64624,"45.70039,-73.64624"
Dunkin Donuts,1201 Broadway,,,US,42.46371,-71.02519,"42.46371,-71.02519"
Dunkin Donuts,1204 Broadway,,,US,42.4583,-71.02376,"42.4583,-71.02376"
Dunkin Donuts,12049 SHERBROOKE EST, MONTREAL,QC H1B1C6,Canada,45.64376,-73.51397,"45.64376,-73.51397"
Dunkin Donuts,121 S Main St,,,US,43.19818,-71.53118,"43.19818,-71.53118"
Dunkin Donuts,1220 Main Street,,,US,42.60734,-71.22707,"42.60734,-71.22707"
Dunkin Donuts,12200 Research Blvd Ste 100,,,US,30.425,-97.7518,"30.425,-97.7518"
Dunkin Donuts,123 Bridge St,,,US,42.72171,-71.32003,"42.72171,-71.32003"
Dunkin Donuts,123 Nutt Rd,,,US,40.12402,-75.51355,"40.12402,-75.51355"
Dunkin Donuts,1234 Massachusetts Ave,,,US,42.42369,-71.17699,"42.42369,-71.17699"
Dunkin Donuts,12375 Academy Rd,,,US,40.0962,-74.97603,"40.0962,-74.97603"
Dunkin Donuts,125 Main St,,,US,42.63082,-70.77535,"42.63082,-70.77535"
Dunkin Donuts,125 Nashua St,,,US,42.36751,-71.06675,"42.36751,-71.06675"
Dunkin Donuts,125 State Route 101a,,,US,42.80688,-71.56786,"42.80688,-71.56786"
Dunkin Donuts,1250 Bethlehem Pike,,,US,40.28721,-75.26541,"40.28721,-75.26541"
Dunkin Donuts,1250 Washington St,,,US,42.34917,-71.225,"42.34917,-71.225"
Dunkin Donuts,1252 Route 73 N,,,US,39.99656,-75.03263,"39.99656,-75.03263"
Dunkin Donuts,1255 E Old Lincoln Highway,,,US,40.16457,-74.93871,"40.16457,-74.93871"
Dunkin Donuts,126 Route 125,,,US,42.89693,-71.0748,"42.89693,-71.0748"
Dunkin Donuts,126 S. 69th St,,,US,39.95755,-75.25825,"39.95755,-75.25825"
Dunkin Donuts,126 State Route 101a,,,US,42.80704,-71.56738,"42.80704,-71.56738"
Dunkin Donuts,1265 S Willow St,,,US,42.95899,-71.43695,"42.95899,-71.43695"
Dunkin Donuts,127 RENE-LEPAGE BLVD E, RIMOUSKI, QC G5L1P1,Canada,48.45507,-68.52465,"48.45507,-68.52465"
Dunkin Donuts,127 Tremont St,,,US,42.35665,-71.06203,"42.35665,-71.06203"
Dunkin Donuts,1278 Lawrence Rd,,,US,40.26585,-74.74034,"40.26585,-74.74034"
Dunkin Donuts,1284 Hooksett Rd,,,US,43.05063,-71.43769,"43.05063,-71.43769"
Dunkin Donuts,1289 Water St,,,US,42.5598,-71.77652,"42.5598,-71.77652"
Dunkin Donuts,129 Main St,,,US,42.70247,-71.13066,"42.70247,-71.13066"
Dunkin Donuts,129 Whalon St,,,US,42.55354,-71.78447,"42.55354,-71.78447"
Dunkin Donuts,13 Main St,,,US,42.5661,-71.10803,"42.5661,-71.10803"
Dunkin Donuts,13 Maverick Sq,,,US,42.36878,-71.03929,"42.36878,-71.03929"
Dunkin Donuts,130 Broadway,,,US,42.38914,-71.04083,"42.38914,-71.04083"
Dunkin Donuts,130 E Highway 550,,,US,35.31903,-106.546,"35.31903,-106.546"
Dunkin Donuts,130 N Chester Ave,,,US,40.04012,-74.97184,"40.04012,-74.97184"
Dunkin Donuts,130 Washington St,,,US,42.61661,-70.66956,"42.61661,-70.66956"
Dunkin Donuts,1316 Beacon St,,,US,42.34244,-71.12102,"42.34244,-71.12102"
Dunkin Donuts,132 Main St,,,US,42.40535,-71.06187,"42.40535,-71.06187"
Dunkin Donuts,132 W Dekalb Pike,,,US,40.0945,-75.3642,"40.0945,-75.3642"
Dunkin Donuts,1324 Walnut St,,,US,39.94907,-75.16338,"39.94907,-75.16338"
Dunkin Donuts,1325 E Washington Ln,,,US,40.05825,-75.16566,"40.05825,-75.16566"
Dunkin Donuts,1326 Hooksett Rd,,,US,43.05651,-71.44114,"43.05651,-71.44114"
Dunkin Donuts,13328 Philmont Rd,,,US,40.13001,-75.01784,"40.13001,-75.01784"
Dunkin Donuts,1335 W University Dr,,,US,33.42184,-111.9592,"33.42184,-111.9592"
Dunkin Donuts,134 N Broadway,,,US,42.78611,-71.23221,"42.78611,-71.23221"
Dunkin Donuts,134 Newton Rd,,,US,42.82888,-71.0588,"42.82888,-71.0588"
Dunkin Donuts,1345 W Olney Ave,,,US,40.03901,-75.14388,"40.03901,-75.14388"
Dunkin Donuts,1350 Tremont St,,,US,42.33248,-71.09277,"42.33248,-71.09277"
Dunkin Donuts,137 Rockingham Rd,,,US,42.91622,-71.36832,"42.91622,-71.36832"
Dunkin Donuts,1373 Lakeview Ave,,,US,42.67157,-71.32963,"42.67157,-71.32963"
Dunkin Donuts,1373 Lakeview Ave, Dracut, MA 01826,Canada,42.67151,-71.32974,"42.67151,-71.32974"
Dunkin Donuts,139 Endicott St,,,US,42.54967,-70.93271,"42.54967,-70.93271"
Dunkin Donuts,139 River Rd,,,US,42.69018,-71.20974,"42.69018,-71.20974"
Dunkin Donuts,14 Mcgrath Hwy,,,US,42.37541,-71.08567,"42.37541,-71.08567"
Dunkin Donuts,1401 S 10th St,,,US,39.93168,-75.16094,"39.93168,-75.16094"
Dunkin Donuts,141 Massachusetts Ave,,,US,42.42592,-71.19532,"42.42592,-71.19532"
Dunkin Donuts,1410 Route 38,,,US,39.93725,-75.03692,"39.93725,-75.03692"
Dunkin Donuts,1412 W Hwy 76,,,US,36.64027,-93.24406,"36.64027,-93.24406"
Dunkin Donuts,1420 Admiral Wilson,,,US,39.94085,-75.10349,"39.94085,-75.10349"
Dunkin Donuts,1420 Boylston St,,,US,42.34356,-71.10093,"42.34356,-71.10093"
Dunkin Donuts,1425 Mass Ave,,,US,42.48618,-71.54062,"42.48618,-71.54062"
Dunkin Donuts,1425 W. Street Rd,,,US,40.21916,-75.12114,"40.21916,-75.12114"
Dunkin Donuts,143 Elm St,,,US,42.83683,-71.66236,"42.83683,-71.66236"
Dunkin Donuts,143 Washington St,,,US,42.38405,-71.56998,"42.38405,-71.56998"
Dunkin Donuts,145 Broadway,,,US,42.40562,-71.01534,"42.40562,-71.01534"
Dunkin Donuts,145 Dartmouth St,,,US,42.34716,-71.07581,"42.34716,-71.07581"
Dunkin Donuts,145 Haddon Ave,,,US,39.92156,-75.08441,"39.92156,-75.08441"
Dunkin Donuts,145 Thorndike St,,,US,42.63627,-71.31298,"42.63627,-71.31298"
Dunkin Donuts,147 Pelham St,,,US,42.72743,-71.20115,"42.72743,-71.20115"
Dunkin Donuts,148 Newburyport Tpke,,,US,42.7029,-70.9104,"42.7029,-70.9104"
Dunkin Donuts,1495 E High St,,,US,40.24407,-75.61579,"40.24407,-75.61579"
Dunkin Donuts,15 Dover Rd,,,US,43.23464,-71.38464,"43.23464,-71.38464"
Dunkin Donuts,15 E Plain St,,,US,42.32124,-71.36381,"42.32124,-71.36381"
Dunkin Donuts,15 Lafayette Rd,,,US,42.8434,-70.86095,"42.8434,-70.86095"
Dunkin Donuts,15 Portsmouth Ave,,,US,42.99551,-70.92534,"42.99551,-70.92534"
Dunkin Donuts,15 S Broadway,,,US,42.78006,-71.22797,"42.78006,-71.22797"
Dunkin Donuts,15 S Main Street,,,US,42.77259,-71.07618,"42.77259,-71.07618"
Dunkin Donuts,15 West Street,,,US,42.56207,-70.81378,"42.56207,-70.81378"
Dunkin Donuts,150 Bridge St,,,US,42.72632,-71.3186,"42.72632,-71.3186"
Dunkin Donuts,1500 Garrett Rd.,,,US,39.95516,-75.27378,"39.95516,-75.27378"
Dunkin Donuts,1500 Market St,,,US,39.95246,-75.16555,"39.95246,-75.16555"
Dunkin Donuts,1500 S Willow St,,,US,42.95491,-71.43573,"42.95491,-71.43573"
Dunkin Donuts,1500 Spring Garden St.,,,US,39.96253,-75.16333,"39.96253,-75.16333"
Dunkin Donuts,1501 N 52nd St,,,US,39.97748,-75.2264,"39.97748,-75.2264"
Dunkin Donuts,1501 W Southwest Loop 323,,,US,32.30344,-95.318,"32.30344,-95.318"
Dunkin Donuts,1505 Middlesex St,,,US,42.63733,-71.34632,"42.63733,-71.34632"
Dunkin Donuts,1507 Chestnut St,,,US,39.95124,-75.16587,"39.95124,-75.16587"
Dunkin Donuts,151 Vfw Pkwy,,,US,42.41155,-70.99541,"42.41155,-70.99541"
Dunkin Donuts,151 W. Main St.,,,US,40.11538,-75.34634,"40.11538,-75.34634"
Dunkin Donuts,152 Washington St,,,US,42.52063,-70.89572,"42.52063,-70.89572"
Dunkin Donuts,153 Endicott St,,,US,42.54882,-70.93939,"42.54882,-70.93939"
Dunkin Donuts,153 Massachusetts Ave,,,US,42.34631,-71.08747,"42.34631,-71.08747"
Dunkin Donuts,1539 Broadway,,,US,42.44908,-71.02678,"42.44908,-71.02678"
Dunkin Donuts,154 Highland Ave,,,US,42.38834,-71.10374,"42.38834,-71.10374"
Dunkin Donuts,154 Main St,,,US,42.41415,-71.11047,"42.41415,-71.11047"
Dunkin Donuts,1551 Washington Ave,,,US,39.93831,-75.16921,"39.93831,-75.16921"
Dunkin Donuts,1555 BOUL. MONTARVILLE, BOUCHERVILLE, QC J4B8T3,Canada,45.56796,-73.40747,"45.56796,-73.40747"
Dunkin Donuts,1580 Columbus Blvd,,,US,39.92771,-75.14515,"39.92771,-75.14515"
Dunkin Donuts,1598 SUD COWANSVILLE, COWANSVILLE, QC J2X2X2,Canada,45.30249,-73.24367,"45.30249,-73.24367"
Dunkin Donuts,16 Kneeland St,,,US,42.35087,-71.06245,"42.35087,-71.06245"
Dunkin Donuts,16 Park St,,,US,42.56101,-71.59055,"42.56101,-71.59055"
Dunkin Donuts,16 S Broadway St,,,US,39.94382,-75.11902,"39.94382,-75.11902"
Dunkin Donuts,16 Tremont St.,,,US,42.3585,-71.05986,"42.3585,-71.05986"
Dunkin Donuts,160 Littleton Rd,,,US,42.56865,-71.42095,"42.56865,-71.42095"
Dunkin Donuts,160 N. Gulph Rd,,,US,40.08549,-75.39308,"40.08549,-75.39308"
Dunkin Donuts,160 Rockingham Rd,,,US,42.86248,-71.28739,"42.86248,-71.28739"
Dunkin Donuts,1600 North Olden Ave,,,US,40.24417,-74.75883,"40.24417,-74.75883"
Dunkin Donuts,1600 S Sunnylane Rd,,,US,35.4496,-97.4415,"35.4496,-97.4415"
Dunkin Donuts,1601 West High St.,,,US,40.24645,-75.68835,"40.24645,-75.68835"
Dunkin Donuts,1602 Elm St,,,US,43.00102,-71.46467,"43.00102,-71.46467"
Dunkin Donuts,161 Pleasant St,,,US,42.50044,-70.85877,"42.50044,-70.85877"
Dunkin Donuts,1615 E Lincoln Hwy,,,US,40.1723,-74.89048,"40.1723,-74.89048"
Dunkin Donuts,1619 Grant Ave,,,US,40.08708,-75.04047,"40.08708,-75.04047"
Dunkin Donuts,162 Washington St,,,US,42.52047,-70.93282,"42.52047,-70.93282"
Dunkin Donuts,1620 Tremont St,,,US,42.3337,-71.10379,"42.3337,-71.10379"
Dunkin Donuts,1625 Princeton Pike,,,US,40.24279,-74.74998,"40.24279,-74.74998"
Dunkin Donuts,163 Howe St.,,,US,42.75197,-71.17275,"42.75197,-71.17275"
Dunkin Donuts,163 W Lancaster Ave,,,US,40.00965,-75.29429,"40.00965,-75.29429"
Dunkin Donuts,1630 Wadsworth Ave,,,US,40.08104,-75.1717,"40.08104,-75.1717"
Dunkin Donuts,1631 Tremont St,,,US,42.33396,-71.10379,"42.33396,-71.10379"
Dunkin Donuts,164 Main St,,,US,42.46583,-71.02721,"42.46583,-71.02721"
Dunkin Donuts,1641 Sudbury Rd,,,US,42.42194,-71.37171,"42.42194,-71.37171"
Dunkin Donuts,1655 W Valencia Rd,,,US,32.1336,-111.0,"32.1336,-111.0"
Dunkin Donuts,1661 ROUTE DE L&amp;apos;AEROPORT, ANCIENNE LORETTE, QC G2G1V6,Canada,46.79953,-71.3704,"46.79953,-71.3704"
Dunkin Donuts,167 State St,,,US,42.80195,-70.87377,"42.80195,-70.87377"
Dunkin Donuts,1671 Beacon St,,,US,42.33852,-71.13766,"42.33852,-71.13766"
Dunkin Donuts,169 Ocean Blvd,,,US,42.9096,-70.81102,"42.9096,-70.81102"
Dunkin Donuts,1699 Shawsheen Rd,,,US,42.62011,-71.18419,"42.62011,-71.18419"
Dunkin Donuts,17 Elm St,,,US,42.66511,-71.70709,"42.66511,-71.70709"
Dunkin Donuts,17 Melnea Cass Blvd,,,US,42.33142,-71.0748,"42.33142,-71.0748"
Dunkin Donuts,17 Railroad Ave,,,US,42.65578,-70.62547,"42.65578,-70.62547"
Dunkin Donuts,170 BLU FISET, SOREL, QC J3P3P4,Canada,46.04254,-73.10264,"46.04254,-73.10264"
Dunkin Donuts,1701 Old York Rd,,,US,40.13192,-75.11573,"40.13192,-75.11573"
Dunkin Donuts,1707 Massachusetts Ave,,,US,42.44701,-71.22606,"42.44701,-71.22606"
Dunkin Donuts,171 Blvd Arthur Sauve, St. Eustache, QC J7P2A5,Canada,45.56152,-73.89451,"45.56152,-73.89451"
Dunkin Donuts,171 Watertown Street,,,US,42.36232,-71.1932,"42.36232,-71.1932"
Dunkin Donuts,1730 ROYAL BLVD, SHAWINIGN, QC G9N8S8,Canada,46.55517,-72.74799,"46.55517,-72.74799"
Dunkin Donuts,1739 N. Broad St,,,US,40.25589,-75.26885,"40.25589,-75.26885"
Dunkin Donuts,175 Forest St,,,US,42.39067,-71.22225,"42.39067,-71.22225"
Dunkin Donuts,1750 North Olden Ave.,,,US,40.24778,-74.76864,"40.24778,-74.76864"
Dunkin Donuts,176 Federal St,,,US,42.35352,-71.05599,"42.35352,-71.05599"
Dunkin Donuts,1777 Bridge St,,,US,42.68291,-71.30949,"42.68291,-71.30949"
Dunkin Donuts,1785 Andover St,,,US,42.64263,-71.23778,"42.64263,-71.23778"
Dunkin Donuts,179 Brighton Ave,,,US,42.35325,-71.13353,"42.35325,-71.13353"
Dunkin Donuts,179 Littleton Rd,,,US,42.56722,-71.42322,"42.56722,-71.42322"
Dunkin Donuts,180 Canal St,,,US,42.36518,-71.06102,"42.36518,-71.06102"
Dunkin Donuts,181 Boston Rd,,,US,42.58259,-71.29009,"42.58259,-71.29009"
Dunkin Donuts,182 Cambridge St,,,US,42.51093,-71.20073,"42.51093,-71.20073"
Dunkin Donuts,182 Great Rd,,,US,42.48666,-71.41702,"42.48666,-71.41702"
Dunkin Donuts,1820 Torresdale Ave,,,US,40.00567,-75.09586,"40.00567,-75.09586"
Dunkin Donuts,1821 Bethlehem Pike,,,US,40.10923,-75.21405,"40.10923,-75.21405"
Dunkin Donuts,1845 RUE ST-ELZAR, LAVAL, QC H7L3N6,Canada,45.58764,-73.74489,"45.58764,-73.74489"
Dunkin Donuts,185 Cambridge Rd,,,US,42.46752,-71.17826,"42.46752,-71.17826"
Dunkin Donuts,185 Woburn St,,,US,42.61969,-71.29025,"42.61969,-71.29025"
Dunkin Donuts,188 Ayer Rd,,,US,42.52179,-71.58228,"42.52179,-71.58228"
Dunkin Donuts,188 Cabot St,,,US,42.5475,-70.87939,"42.5475,-70.87939"
Dunkin Donuts,188 Haverhill St,,,US,42.70639,-71.20046,"42.70639,-71.20046"
Dunkin Donuts,1886 Revere Beach Pkwy,,,US,42.40249,-71.04994,"42.40249,-71.04994"
Dunkin Donuts,190 Amherst St,,,US,42.77535,-71.49011,"42.77535,-71.49011"
Dunkin Donuts,1902 Central Ave Se,,,US,35.08111,-106.6254,"35.08111,-106.6254"
Dunkin Donuts,1918 Dover Rd,,,US,43.2285,-71.36227,"43.2285,-71.36227"
Dunkin Donuts,192 Elm St,,,US,42.8443,-70.89524,"42.8443,-70.89524"
Dunkin Donuts,1931 W Northern Ave,,,US,33.55311,-112.1003,"33.55311,-112.1003"
Dunkin Donuts,1932 South Willow Street,,,US,42.94813,-71.43356,"42.94813,-71.43356"
Dunkin Donuts,1932 Wellington Road,,,US,43.00849,-71.3972,"43.00849,-71.3972"
Dunkin Donuts,1941 Main St,,,US,40.13171,-75.37644,"40.13171,-75.37644"
Dunkin Donuts,195 Main St,,,US,42.55789,-71.18213,"42.55789,-71.18213"
Dunkin Donuts,1953 E Southern Ave,,,US,33.39357,-111.7892,"33.39357,-111.7892"
Dunkin Donuts,196 Main St,,,US,42.48867,-71.10003,"42.48867,-71.10003"
Dunkin Donuts,1973 Main St,,,US,42.58953,-71.20306,"42.58953,-71.20306"
Dunkin Donuts,1976 Woodbury Ave # 1,,,US,43.09377,-70.79417,"43.09377,-70.79417"
Dunkin Donuts,1980 Commercial St Se,,,US,44.92147,-123.0447,"44.92147,-123.0447"
Dunkin Donuts,1981 N. Olden Avenue Ext,,,US,40.25186,-74.7883,"40.25186,-74.7883"
Dunkin Donuts,199 Lakeside Ave,,,US,42.34202,-71.56882,"42.34202,-71.56882"
Dunkin Donuts,2 Ashleigh Dr,,,US,42.89804,-71.33259,"42.89804,-71.33259"
Dunkin Donuts,2 City Hall Sq,,,US,42.35914,-71.05954,"42.35914,-71.05954"
Dunkin Donuts,2 Fredonian St,,,US,42.54416,-71.65505,"42.54416,-71.65505"
Dunkin Donuts,2 Lexington Ave,,,US,42.57723,-70.71196,"42.57723,-70.71196"
Dunkin Donuts,2 Main St,,,US,42.74275,-71.59123,"42.74275,-71.59123"
Dunkin Donuts,2 Penn Center Plaza,,,US,39.95151,-75.16381,"39.95151,-75.16381"
Dunkin Donuts,2 S Mast St,,,US,43.0157,-71.59791,"43.0157,-71.59791"
Dunkin Donuts,2 Township Line Rd,,,US,40.07017,-75.09888,"40.07017,-75.09888"
Dunkin Donuts,2 Wilson Rd,,,US,42.43652,-70.93684,"42.43652,-70.93684"
Dunkin Donuts,20 Boylston St,,,US,42.33126,-71.11826,"42.33126,-71.11826"
Dunkin Donuts,20 Main St,,,US,42.38267,-70.99339,"42.38267,-70.99339"
Dunkin Donuts,20 North St,,,US,42.36073,-71.0562,"42.36073,-71.0562"
Dunkin Donuts,20 Plaistow Rd,,,US,42.81123,-71.10316,"42.81123,-71.10316"
Dunkin Donuts,20 RUE DE TOULON, ST-AUGUSTIN DE DESMAURES, QC G3A3A9,Canada,46.75263,-71.43107,"46.75263,-71.43107"
Dunkin Donuts,20 Smith South Blvd, Thetford Mines, QC G6G1M7,Canada,46.08613,-71.3053,"46.08613,-71.3053"
Dunkin Donuts,20 W Lancaster Ave,,,US,40.04177,-75.48472,"40.04177,-75.48472"
Dunkin Donuts,200 Seaport Blvd,,,US,42.35018,-71.04173,"42.35018,-71.04173"
Dunkin Donuts,200 Terminal B Ste 2153,,,US,42.36216,-71.01841,"42.36216,-71.01841"
Dunkin Donuts,200 West Camden Ave,,,US,39.95702,-74.98419,"39.95702,-74.98419"
Dunkin Donuts,2001 Chestnut St,,,US,39.95225,-75.17372,"39.95225,-75.17372"
Dunkin Donuts,2001 Coit Rd,,,US,33.02663,-96.7702,"33.02663,-96.7702"
Dunkin Donuts,201 Alewife Brook Pky,,,US,42.38951,-71.14285,"42.38951,-71.14285"
Dunkin Donuts,201 Canal St,,,US,42.50669,-70.89593,"42.50669,-70.89593"
Dunkin Donuts,201 N Circle Dr,,,US,38.8359,-104.7758,"38.8359,-104.7758"
Dunkin Donuts,2013 Revere Beach Pky,,,US,42.40329,-71.05413,"42.40329,-71.05413"
Dunkin Donuts,2020 UNIVERSITY, MONTREAL, QC H3A2A5,Canada,45.50425,-73.5719,"45.50425,-73.5719"
Dunkin Donuts,2021 Notingham Way,,,US,40.23288,-74.70917,"40.23288,-74.70917"
Dunkin Donuts,20229 N 67th Ave,,,US,33.67018,-112.2028,"33.67018,-112.2028"
Dunkin Donuts,2025 S Broad St,,,US,39.92517,-75.16932,"39.92517,-75.16932"
Dunkin Donuts,205 Main St,,,US,42.61322,-70.66045,"42.61322,-70.66045"
Dunkin Donuts,2085 Pennington Rd,,,US,40.2764,-74.78088,"40.2764,-74.78088"
Dunkin Donuts,209 N Harvard St,,,US,42.36285,-71.13029,"42.36285,-71.13029"
Dunkin Donuts,2096 Commonwealth Ave,,,US,42.3478,-71.24764,"42.3478,-71.24764"
Dunkin Donuts,21 Summer St,,,US,42.41945,-71.15287,"42.41945,-71.15287"
Dunkin Donuts,210 Andover St,,,US,42.54289,-70.94209,"42.54289,-70.94209"
Dunkin Donuts,210 Harvard Ave,,,US,42.34986,-71.13051,"42.34986,-71.13051"
Dunkin Donuts,210 West Lancaster Avenue,,,US,40.04065,-75.54026,"40.04065,-75.54026"
Dunkin Donuts,211 Lowell St,,,US,42.53955,-71.15038,"42.53955,-71.15038"
Dunkin Donuts,2112 County Line Rd,,,US,40.15434,-75.0427,"40.15434,-75.0427"
Dunkin Donuts,212 Main St,,,US,42.46864,-71.45635,"42.46864,-71.45635"
Dunkin Donuts,213 Daniel Webster Highway,,,US,42.71445,-71.44283,"42.71445,-71.44283"
Dunkin Donuts,213 Daniel Webster Hwy,,,US,42.71445,-71.44283,"42.71445,-71.44283"
Dunkin Donuts,213 Gonic Rd,,,US,43.25542,-70.9793,"43.25542,-70.9793"
Dunkin Donuts,214 N Beacon St,,,US,42.35601,-71.149,"42.35601,-71.149"
Dunkin Donuts,215 Winter St,,,US,42.77784,-71.08572,"42.77784,-71.08572"
Dunkin Donuts,216 Elm St,,,US,42.98088,-71.46329,"42.98088,-71.46329"
Dunkin Donuts,22 Beacon St,,,US,42.35802,-71.06208,"42.35802,-71.06208"
Dunkin Donuts,22 W Broadway,,,US,42.3426,-71.05646,"42.3426,-71.05646"
Dunkin Donuts,220 Broadway,,,US,42.38961,-71.08869,"42.38961,-71.08869"
Dunkin Donuts,221 W. Hunting Park Ave,,,US,40.01447,-75.13036,"40.01447,-75.13036"
Dunkin Donuts,222 Broadway,,,US,42.3664,-71.09409,"42.3664,-71.09409"
Dunkin Donuts,222 W Main St,,,US,40.196,-75.46977,"40.196,-75.46977"
Dunkin Donuts,223 Groton Rd,,,US,42.61152,-71.45704,"42.61152,-71.45704"
Dunkin Donuts,223 Lowell Rd,,,US,42.73183,-71.4255,"42.73183,-71.4255"
Dunkin Donuts,224 Elliott St,,,US,42.55646,-70.8883,"42.55646,-70.8883"
Dunkin Donuts,2240 18 West Route 70,,,US,39.9337,-75.02919,"39.9337,-75.02919"
Dunkin Donuts,225 E State St,,,US,40.22022,-74.76116,"40.22022,-74.76116"
Dunkin Donuts,225 Essex St,,,US,42.70782,-71.15923,"42.70782,-71.15923"
Dunkin Donuts,225 Main St,,,US,42.61057,-71.57454,"42.61057,-71.57454"
Dunkin Donuts,2297 Brown Ave,,,US,42.94426,-71.45232,"42.94426,-71.45232"
Dunkin Donuts,230 Revere Street,,,US,42.38596,-70.97659,"42.38596,-70.97659"
Dunkin Donuts,2305 Blvd Industriel, Laval, QC H7S1P8,Canada,45.58076,-73.73103,"45.58076,-73.73103"
Dunkin Donuts,2308 W Passyunk Ave,,,US,39.9223,-75.18612,"39.9223,-75.18612"
Dunkin Donuts,2318 N. Front St,,,US,39.98516,-75.13232,"39.98516,-75.13232"
Dunkin Donuts,2321 Pottstown,,,US,40.17008,-75.66471,"40.17008,-75.66471"
Dunkin Donuts,2327 Cottman Ave(Kk),,,US,40.04797,-75.06019,"40.04797,-75.06019"
Dunkin Donuts,234 Everett Ave,,,US,42.39841,-71.04072,"42.39841,-71.04072"
Dunkin Donuts,234 Washington St,,,US,42.37832,-71.56505,"42.37832,-71.56505"
Dunkin Donuts,235 Old Connecticut Path,,,US,42.30688,-71.40171,"42.30688,-71.40171"
Dunkin Donuts,235 Washington St,,,US,42.35824,-71.05821,"42.35824,-71.05821"
Dunkin Donuts,2360 Ch. Des Patriotes, Notre Dame De Bonsecours, QC J0E1H0,Canada,45.40417,-72.32726,"45.40417,-72.32726"
Dunkin Donuts,2360 Washington St,,,US,42.32919,-71.08466,"42.32919,-71.08466"
Dunkin Donuts,238 Pleasant Street,,,US,42.67062,-71.49727,"42.67062,-71.49727"
Dunkin Donuts,24 Merrimack St,,,US,42.64534,-71.3079,"42.64534,-71.3079"
Dunkin Donuts,240 Middlesex Tpke,,,US,42.50091,-71.22924,"42.50091,-71.22924"
Dunkin Donuts,240 S Easton Rd,,,US,40.09747,-75.15676,"40.09747,-75.15676"
Dunkin Donuts,241 Maple St,,,US,42.59615,-70.99111,"42.59615,-70.99111"
Dunkin Donuts,242 Daniel Webster Highway,,,US,42.70947,-71.44156,"42.70947,-71.44156"
Dunkin Donuts,244 Elm St,,,US,42.39518,-71.12197,"42.39518,-71.12197"
Dunkin Donuts,2445 Brown Ave,,,US,42.94187,-71.45232,"42.94187,-71.45232"
Dunkin Donuts,245 Eddy Rd,,,US,42.9998,-71.47569,"42.9998,-71.47569"
Dunkin Donuts,245 Pleasant St,,,US,42.4274,-71.07411,"42.4274,-71.07411"
Dunkin Donuts,2451 Lincoln Hwy # Us,,,US,40.12211,-74.97619,"40.12211,-74.97619"
Dunkin Donuts,2460 Lafayette Rd,,,US,43.03319,-70.78399,"43.03319,-70.78399"
Dunkin Donuts,248 Highland Ave,,,US,42.50462,-70.92169,"42.50462,-70.92169"
Dunkin Donuts,2480 Massachusetts Ave,,,US,42.39852,-71.13194,"42.39852,-71.13194"
Dunkin Donuts,249 R. North Main St,,,US,42.28234,-71.34998,"42.28234,-71.34998"
Dunkin Donuts,2491 CHEMIN STE-FOY, STE-FOY, QC G1V1T7,Canada,46.78395,-71.28815,"46.78395,-71.28815"
Dunkin Donuts,2501 Burlington Mt Holly Rd,,,US,40.03848,-74.828,"40.03848,-74.828"
Dunkin Donuts,2520 CURE-LABELLE BLVD, LAVAL, QC H7T1R7,Canada,45.56179,-73.77415,"45.56179,-73.77415"
Dunkin Donuts,2530 Aramingo Ave,,,US,39.97721,-75.1196,"39.97721,-75.1196"
Dunkin Donuts,256 Ayer Rd,,,US,42.55142,-71.53643,"42.55142,-71.53643"
Dunkin Donuts,256 Boston St,,,US,42.32092,-71.06113,"42.32092,-71.06113"
Dunkin Donuts,259 Lincoln Ave,,,US,42.76411,-71.03818,"42.76411,-71.03818"
Dunkin Donuts,259 Main St,,,US,42.48443,-71.1004,"42.48443,-71.1004"
Dunkin Donuts,26 Broad St,,,US,42.83084,-70.997,"42.83084,-70.997"
Dunkin Donuts,260 Amherst St,,,US,42.77858,-71.49758,"42.77858,-71.49758"
Dunkin Donuts,260 S Main St,,,US,42.5757,-70.99557,"42.5757,-70.99557"
Dunkin Donuts,2601 Egypt Rd,,,US,40.13091,-75.40236,"40.13091,-75.40236"
Dunkin Donuts,2618 Easton Rd,,,US,40.14114,-75.11748,"40.14114,-75.11748"
Dunkin Donuts,264 Main Dunstable Rd,,,US,42.74132,-71.49557,"42.74132,-71.49557"
Dunkin Donuts,265 Franklin St,,,US,42.35659,-71.05355,"42.35659,-71.05355"
Dunkin Donuts,2654 S 18th St,,,US,39.91833,-75.17774,"39.91833,-75.17774"
Dunkin Donuts,267 BOUL. ARTHUR SAUVE, STE-EUSTACHE, QC J7P4X4,Canada,45.56093,-73.89862,"45.56093,-73.89862"
Dunkin Donuts,267 Central St,,,US,42.39232,-71.61143,"42.39232,-71.61143"
Dunkin Donuts,268 Summer St,,,US,42.35034,-71.05016,"42.35034,-71.05016"
Dunkin Donuts,269 E Main St,,,US,42.35103,-71.53426,"42.35103,-71.53426"
Dunkin Donuts,270 Loudon Rd # 1240,,,US,43.22447,-71.48884,"43.22447,-71.48884"
Dunkin Donuts,270 N Country Club Dr,,,US,33.42049,-111.8401,"33.42049,-111.8401"
Dunkin Donuts,2701 N Mesa St,,,US,31.77683,-106.5034,"31.77683,-106.5034"
Dunkin Donuts,2701 N. Broad St,,,US,39.99401,-75.15432,"39.99401,-75.15432"
Dunkin Donuts,272 Highland Ave,,,US,42.50356,-70.92349,"42.50356,-70.92349"
Dunkin Donuts,273 Salem St,,,US,42.52619,-71.08662,"42.52619,-71.08662"
Dunkin Donuts,2747 E Indian School Rd,,,US,33.49491,-112.0226,"33.49491,-112.0226"
Dunkin Donuts,275 Parkway Avenue,,,US,40.23993,-74.77537,"40.23993,-74.77537"
Dunkin Donuts,276 Beacham St,,,US,42.39534,-71.05058,"42.39534,-71.05058"
Dunkin Donuts,28 Main St,,,US,42.65074,-71.66453,"42.65074,-71.66453"
Dunkin Donuts,28 W River Rd,,,US,43.04056,-71.46992,"43.04056,-71.46992"
Dunkin Donuts,28 Winn St,,,US,42.49105,-71.17386,"42.49105,-71.17386"
Dunkin Donuts,280 New Lancaster Rd,,,US,42.49757,-71.73057,"42.49757,-71.73057"
Dunkin Donuts,2803 S Broad St,,,US,40.19059,-74.71119,"40.19059,-74.71119"
Dunkin Donuts,2804 Township Line Rd,,,US,39.96492,-75.30229,"39.96492,-75.30229"
Dunkin Donuts,2805-2809 S. Front St,,,US,39.91218,-75.15029,"39.91218,-75.15029"
Dunkin Donuts,2806 Mt. Ephraim Ave,,,US,39.90805,-75.09729,"39.90805,-75.09729"
Dunkin Donuts,282 Derby Street,,,US,42.52036,-70.89137,"42.52036,-70.89137"
Dunkin Donuts,282 Mystic Ave,,,US,42.40567,-71.10141,"42.40567,-71.10141"
Dunkin Donuts,282 Somerville Ave,,,US,42.37907,-71.09457,"42.37907,-71.09457"
Dunkin Donuts,283 Huntington Ave,,,US,42.34175,-71.08657,"42.34175,-71.08657"
Dunkin Donuts,283 Middlesex Ave,,,US,42.41267,-71.07899,"42.41267,-71.07899"
Dunkin Donuts,285 Route 130 S,,,US,39.99014,-75.00629,"39.99014,-75.00629"
Dunkin Donuts,2875 Lafayette Rd,,,US,43.02768,-70.79062,"43.02768,-70.79062"
Dunkin Donuts,29 S Main St,,,US,42.59382,-71.01539,"42.59382,-71.01539"
Dunkin Donuts,290 Central St,,,US,42.64147,-71.30806,"42.64147,-71.30806"
Dunkin Donuts,2901 Abbotsford Ave,,,US,40.0159,-75.17578,"40.0159,-75.17578"
Dunkin Donuts,2901 Hulmville Rd,,,US,40.09471,-74.94576,"40.09471,-74.94576"
Dunkin Donuts,2910 N Hayden Rd,,,US,33.48065,-111.909,"33.48065,-111.909"
Dunkin Donuts,293 Main St.,,,US,42.5944,-71.119,"42.5944,-71.119"
Dunkin Donuts,299 Main St,,,US,42.47621,-71.45147,"42.47621,-71.45147"
Dunkin Donuts,2998 A Welsh Rd,,,US,39.95151,-75.16381,"39.95151,-75.16381"
Dunkin Donuts,3 Central St,,,US,42.52715,-70.92709,"42.52715,-70.92709"
Dunkin Donuts,3 Elm St,,,US,42.50171,-71.15891,"42.50171,-71.15891"
Dunkin Donuts,3 Forge Village Rd,,,US,42.57914,-71.52037,"42.57914,-71.52037"
Dunkin Donuts,30 Commercial St,,,US,42.40906,-71.08832,"42.40906,-71.08832"
Dunkin Donuts,30 Manchester Rd,,,US,42.89825,-71.33477,"42.89825,-71.33477"
Dunkin Donuts,30 Richboro Newtown Rd,,,US,40.22764,-74.94121,"40.22764,-74.94121"
Dunkin Donuts,30 Squire Rd,,,US,42.42152,-71.0058,"42.42152,-71.0058"
Dunkin Donuts,300 Erie Ave,,,US,40.00689,-75.12257,"40.00689,-75.12257"
Dunkin Donuts,300 Main St,,,US,42.75303,-71.46165,"42.75303,-71.46165"
Dunkin Donuts,300 Ocean Avenue,,,US,42.40758,-70.99202,"42.40758,-70.99202"
Dunkin Donuts,3000 RUE MASSON, MONTREAL, QC H1Y1X6,Canada,45.54869,-73.57453,"45.54869,-73.57453"
Dunkin Donuts,301 Newberry St,,,US,42.58667,-70.96578,"42.58667,-70.96578"
Dunkin Donuts,3030 E Main St,,,US,36.74529,-108.1652,"36.74529,-108.1652"
Dunkin Donuts,304 Sandown Rd,,,US,42.89364,-71.14466,"42.89364,-71.14466"
Dunkin Donuts,308 Bristol Pike,,,US,40.09355,-74.91147,"40.09355,-74.91147"
Dunkin Donuts,308 Daniel Webster Hwy,,,US,42.84017,-71.49106,"42.84017,-71.49106"
Dunkin Donuts,308 Great Rd,,,US,42.48671,-71.26295,"42.48671,-71.26295"
Dunkin Donuts,3085-C STE-MARIE BOULEVARD, MASCOUCHE, QC J7K1P2,Canada,45.74624,-73.60093,"45.74624,-73.60093"
Dunkin Donuts,309 Lowell St,,,US,42.64915,-71.18276,"42.64915,-71.18276"
Dunkin Donuts,31 Bridge St,,,US,42.53398,-70.8875,"42.53398,-70.8875"
Dunkin Donuts,31 E Germantown Pike,,,US,40.14008,-75.30998,"40.14008,-75.30998"
Dunkin Donuts,310 Daniel Webster Highway,,,US,42.7029,-71.44066,"42.7029,-71.44066"
Dunkin Donuts,3100 Quakerbridge Rd,,,US,40.24656,-74.68686,"40.24656,-74.68686"
Dunkin Donuts,3101 Marne Hwy,,,US,39.97859,-74.87082,"39.97859,-74.87082"
Dunkin Donuts,315 Bridge St,,,US,42.64937,-71.30403,"42.64937,-71.30403"
Dunkin Donuts,315 N. York Rd,,,US,40.18195,-75.10524,"40.18195,-75.10524"
Dunkin Donuts,315 West Hollis St,,,US,42.75097,-71.48624,"42.75097,-71.48624"
Dunkin Donuts,316 Lowell St,,,US,42.53881,-71.13904,"42.53881,-71.13904"
Dunkin Donuts,317 Woburn St,,,US,42.44924,-71.19882,"42.44924,-71.19882"
Dunkin Donuts,318 Broadway,,,US,42.4035,-71.05906,"42.4035,-71.05906"
Dunkin Donuts,318 E Lincoln Hwy,,,US,40.02878,-75.62077,"40.02878,-75.62077"
Dunkin Donuts,318 Main St,,,US,42.61407,-71.5782,"42.61407,-71.5782"
Dunkin Donuts,318 Montvale Ave,,,US,42.47971,-71.11991,"42.47971,-71.11991"
Dunkin Donuts,320 Beverly Rancocas Rd,,,US,40.02783,-74.90808,"40.02783,-74.90808"
Dunkin Donuts,320 Rue St. Joseph Est., Quebec, QC G1K8G5,Canada,46.81384,-71.22612,"46.81384,-71.22612"
Dunkin Donuts,320 S Wayside Dr,,,US,29.73417,-95.3074,"29.73417,-95.3074"
Dunkin Donuts,3200 Red Lion Rd,,,US,40.08146,-74.99447,"40.08146,-74.99447"
Dunkin Donuts,321 Main St,,,US,42.55073,-71.17725,"42.55073,-71.17725"
Dunkin Donuts,3211 Route 38 West,,,US,39.97011,-74.88359,"39.97011,-74.88359"
Dunkin Donuts,3216 N. Broad St.,,,US,40.00196,-75.15299,"40.00196,-75.15299"
Dunkin Donuts,3224 N Classen Blvd,,,US,35.50204,-97.5342,"35.50204,-97.5342"
Dunkin Donuts,323 N. Main St,,,US,42.62075,-71.05238,"42.62075,-71.05238"
Dunkin Donuts,325 Washington St,,,US,42.49641,-71.12468,"42.49641,-71.12468"
Dunkin Donuts,329 Derry St,,,US,42.81912,-71.41363,"42.81912,-71.41363"
Dunkin Donuts,329 Spring Garden,,,US,39.96099,-75.14388,"39.96099,-75.14388"
Dunkin Donuts,330 Boston Post Rd,,,US,42.34901,-71.51677,"42.34901,-71.51677"
Dunkin Donuts,330 Brookline Ave,,,US,42.34053,-71.10528,"42.34053,-71.10528"
Dunkin Donuts,330 Congress St,,,US,42.35103,-71.04936,"42.35103,-71.04936"
Dunkin Donuts,330 W Oregon Ave,,,US,39.91441,-75.15374,"39.91441,-75.15374"
Dunkin Donuts,330 W Route 130,,,US,40.07097,-74.8643,"40.07097,-74.8643"
Dunkin Donuts,3313 Wharton St,,,US,39.9382,-75.1981,"39.9382,-75.1981"
Dunkin Donuts,3320 Grant Ave Unit 18b,,,US,40.06874,-75.00687,"40.06874,-75.00687"
Dunkin Donuts,333 Lynnway,,,US,42.45793,-70.94967,"42.45793,-70.94967"
Dunkin Donuts,333 Newbury St,,,US,42.3487,-71.08657,"42.3487,-71.08657"
Dunkin Donuts,334 Easton Rd,,,US,40.22191,-75.14011,"40.22191,-75.14011"
Dunkin Donuts,337 Great Rd,,,US,42.4856,-71.2612,"42.4856,-71.2612"
Dunkin Donuts,337 Worcester St,,,US,42.30248,-71.33832,"42.30248,-71.33832"
Dunkin Donuts,339 Main St,,,US,42.47288,-71.03643,"42.47288,-71.03643"
Dunkin Donuts,339 Speen St,,,US,42.30534,-71.38204,"42.30534,-71.38204"
Dunkin Donuts,34 William Kelly Sq,,,US,42.37509,-71.03897,"42.37509,-71.03897"
Dunkin Donuts,342 Broadway,,,US,42.71079,-71.17338,"42.71079,-71.17338"
Dunkin Donuts,343 Loudon Rd,,,US,43.22934,-71.48189,"43.22934,-71.48189"
Dunkin Donuts,3437 Walnut St,,,US,39.95299,-75.19269,"39.95299,-75.19269"
Dunkin Donuts,344 Washington St,,,US,42.49726,-71.12526,"42.49726,-71.12526"
Dunkin Donuts,345 Bennett Hwy,,,US,42.44505,-71.0253,"42.44505,-71.0253"
Dunkin Donuts,345 Washington St.,,,US,42.35675,-71.18764,"42.35675,-71.18764"
Dunkin Donuts,348 Main St,,,US,42.45215,-71.06722,"42.45215,-71.06722"
Dunkin Donuts,349 Great Road,,,US,42.4848,-71.26051,"42.4848,-71.26051"
Dunkin Donuts,349 N Main St,,,US,42.67284,-71.15075,"42.67284,-71.15075"
Dunkin Donuts,34a Rte 130 South,,,US,40.07113,-74.86526,"40.07113,-74.86526"
Dunkin Donuts,35 Lincoln Ave,,,US,42.4583,-70.98974,"42.4583,-70.98974"
Dunkin Donuts,35 Squire Rd,,,US,42.42189,-71.00574,"42.42189,-71.00574"
Dunkin Donuts,35 Washington St.,,,US,42.47017,-70.95788,"42.47017,-70.95788"
Dunkin Donuts,350 Longwood Ave,,,US,42.33868,-71.10713,"42.33868,-71.10713"
Dunkin Donuts,3501 Aramingo Ave,,,US,39.99216,-75.09904,"39.99216,-75.09904"
Dunkin Donuts,3519 W Glendale Ave,,,US,33.53851,-112.1349,"33.53851,-112.1349"
Dunkin Donuts,352 Lafayette St,,,US,42.5042,-70.89031,"42.5042,-70.89031"
Dunkin Donuts,356 Eastern Ave.,,,US,42.39825,-71.02053,"42.39825,-71.02053"
Dunkin Donuts,3585 HOCHELAGA, MONTREAL, QC H1W1H9,Canada,45.54695,-73.55136,"45.54695,-73.55136"
Dunkin Donuts,3587 Harvey Blvd, Jonquiere, QC G7X3B5,Canada,48.41224,-71.23226,"48.41224,-71.23226"
Dunkin Donuts,36 Maple St,,,US,42.56621,-70.93647,"42.56621,-70.93647"
Dunkin Donuts,36-38 Lowell Street,,,US,42.76544,-71.24027,"42.76544,-71.24027"
Dunkin Donuts,360 Huntington Ave,,,US,42.34006,-71.08895,"42.34006,-71.08895"
Dunkin Donuts,360 Jacksonville Rd,,,US,40.19255,-75.08743,"40.19255,-75.08743"
Dunkin Donuts,3601 Rt 38,,,US,39.9664,-74.91852,"39.9664,-74.91852"
Dunkin Donuts,3610 Bristol Rd,,,US,40.13876,-74.9482,"40.13876,-74.9482"
Dunkin Donuts,3612 N May Ave,,,US,35.50621,-97.5655,"35.50621,-97.5655"
Dunkin Donuts,362 Middlesex Ave,,,US,42.56886,-71.15981,"42.56886,-71.15981"
Dunkin Donuts,363 Tremont Street,,,US,42.3487,-71.06701,"42.3487,-71.06701"
Dunkin Donuts,364 Boston Ave,,,US,42.41081,-71.12033,"42.41081,-71.12033"
Dunkin Donuts,364 Lynnway,,,US,42.45698,-70.95041,"42.45698,-70.95041"
Dunkin Donuts,369 Lafayette Rd,,,US,42.9389,-70.83821,"42.9389,-70.83821"
Dunkin Donuts,369 Mass Ave,,,US,42.41235,-71.14863,"42.41235,-71.14863"
Dunkin Donuts,3705 Frederick Ave,,,US,39.77682,-94.8029,"39.77682,-94.8029"
Dunkin Donuts,3705 Germantown Ave,,,US,40.00944,-75.15071,"40.00944,-75.15071"
Dunkin Donuts,372 Washington Ave,,,US,42.40498,-71.03574,"42.40498,-71.03574"
Dunkin Donuts,373 Waltham St,,,US,42.43678,-71.23497,"42.43678,-71.23497"
Dunkin Donuts,376 W. Uwchlan,,,US,40.03228,-75.67849,"40.03228,-75.67849"
Dunkin Donuts,378 Boston Post Rd,,,US,42.36216,-71.41761,"42.36216,-71.41761"
Dunkin Donuts,379 Alewife Brook Pky,,,US,42.41346,-71.13109,"42.41346,-71.13109"
Dunkin Donuts,380 MARAIS, VANIER, QC G1M3A2,Canada,46.82811,-71.28229,"46.82811,-71.28229"
Dunkin Donuts,380 S Broadway,,,US,42.75102,-71.20577,"42.75102,-71.20577"
Dunkin Donuts,381 Main St,,,US,42.62069,-71.26067,"42.62069,-71.26067"
Dunkin Donuts,381 Portsmouth Ave,,,US,43.04035,-70.82782,"43.04035,-70.82782"
Dunkin Donuts,384 Trapelo Rd,,,US,42.38564,-71.18462,"42.38564,-71.18462"
Dunkin Donuts,3850 Mystic Valley Pkwy,,,US,42.40567,-71.09351,"42.40567,-71.09351"
Dunkin Donuts,386 Main St,,,US,42.50335,-71.07014,"42.50335,-71.07014"
Dunkin Donuts,392 Hooksett Rd,,,US,43.0237,-71.37118,"43.0237,-71.37118"
Dunkin Donuts,395 Ocean Blvd,,,US,42.91728,-70.80615,"42.91728,-70.80615"
Dunkin Donuts,395 W Trenton Ave,,,US,40.2093,-74.79848,"40.2093,-74.79848"
Dunkin Donuts,4 Jean Ave,,,US,42.62234,-71.35962,"42.62234,-71.35962"
Dunkin Donuts,4 Main St,,,US,42.98374,-71.47416,"42.98374,-71.47416"
Dunkin Donuts,4 Paradise Rd,,,US,42.48628,-70.90049,"42.48628,-70.90049"
Dunkin Donuts,4 West St,,,US,42.50854,-71.12415,"42.50854,-71.12415"
Dunkin Donuts,40 Beach St,,,US,42.57358,-70.77005,"42.57358,-70.77005"
Dunkin Donuts,40 Jackson St,,,US,42.72404,-71.16003,"42.72404,-71.16003"
Dunkin Donuts,400 E. Baltimore Pike,,,US,39.91578,-75.38301,"39.91578,-75.38301"
Dunkin Donuts,4001 New Rodgers Rd,,,US,40.13255,-74.88418,"40.13255,-74.88418"
Dunkin Donuts,4009 San Mateo Blvd Ne,,,US,35.1275,-106.5868,"35.1275,-106.5868"
Dunkin Donuts,401 Watertown St,,,US,42.3602,-71.20237,"42.3602,-71.20237"
Dunkin Donuts,4015 Veterans Memorial Blvd,,,US,30.00482,-90.1749,"30.00482,-90.1749"
Dunkin Donuts,4017-59 N. 5th St,,,US,40.0123,-75.13566,"40.0123,-75.13566"
Dunkin Donuts,4022 N Oracle Rd,,,US,32.27968,-110.9781,"32.27968,-110.9781"
Dunkin Donuts,4046 Woodhaven Blvd,,,US,40.08554,-74.97062,"40.08554,-74.97062"
Dunkin Donuts,4060 CH. DE LA/COTE-DE-LIESSE, VILLA MONT-ROYAL, QC H4N2P7,Canada,45.50621,-73.6635,"45.50621,-73.6635"
Dunkin Donuts,407 Amesbury Rd,,,US,42.8045,-71.05005,"42.8045,-71.05005"
Dunkin Donuts,409 Main St,,,US,42.48024,-71.15133,"42.48024,-71.15133"
Dunkin Donuts,41 Enon St,,,US,42.58672,-70.88517,"42.58672,-70.88517"
Dunkin Donuts,41 Nashua Rd,,,US,42.86476,-71.34865,"42.86476,-71.34865"
Dunkin Donuts,410 Lalor St,,,US,40.19854,-74.75253,"40.19854,-74.75253"
Dunkin Donuts,411 Cabot St,,,US,42.55921,-70.88247,"42.55921,-70.88247"
Dunkin Donuts,4130 E Thomas Rd,,,US,33.48052,-111.9927,"33.48052,-111.9927"
Dunkin Donuts,415 Summer St,,,US,42.34652,-71.04284,"42.34652,-71.04284"
Dunkin Donuts,416 N 63rd St #36,,,US,39.96926,-75.24558,"39.96926,-75.24558"
Dunkin Donuts,417 S Main St,,,US,43.17714,-71.52991,"43.17714,-71.52991"
Dunkin Donuts,417 Washington St Suite M,,,US,42.35628,-71.0598,"42.35628,-71.0598"
Dunkin Donuts,42 Daniel Webster Hwy,,,US,42.79883,-71.47363,"42.79883,-71.47363"
Dunkin Donuts,42 Hamilton St,,,US,42.46551,-71.00617,"42.46551,-71.00617"
Dunkin Donuts,42 Lafayette Rd,,,US,42.96646,-70.83561,"42.96646,-70.83561"
Dunkin Donuts,42 Main St,,,US,42.764,-71.46658,"42.764,-71.46658"
Dunkin Donuts,42 Market St,,,US,42.46376,-70.95009,"42.46376,-70.95009"
Dunkin Donuts,4207 Rue Bernard Pillon, St Mathieu De Beloeil, QC J3G4S5,Canada,45.58124,-73.27817,"45.58124,-73.27817"
Dunkin Donuts,422 Main St,,,US,42.39459,-71.54825,"42.39459,-71.54825"
Dunkin Donuts,424 Main St,,,US,42.42687,-71.06717,"42.42687,-71.06717"
Dunkin Donuts,425 Revere Beach Blvd,,,US,42.42443,-70.98295,"42.42443,-70.98295"
Dunkin Donuts,426 Washington St,,,US,42.35553,-71.06012,"42.35553,-71.06012"
Dunkin Donuts,4268 Ridge Ave,,,US,40.00965,-75.19629,"40.00965,-75.19629"
Dunkin Donuts,427 S Stark Hwy,,,US,43.04353,-71.68075,"43.04353,-71.68075"
Dunkin Donuts,429 Highland Ave,,,US,42.49476,-70.93335,"42.49476,-70.93335"
Dunkin Donuts,43 Allenstown Rd,,,US,43.12446,-71.44289,"43.12446,-71.44289"
Dunkin Donuts,430 Salem St,,,US,42.42274,-71.09224,"42.42274,-71.09224"
Dunkin Donuts,430 Stuart St,,,US,42.34854,-71.07512,"42.34854,-71.07512"
Dunkin Donuts,434 Mass Ave,,,US,42.34096,-71.08201,"42.34096,-71.08201"
Dunkin Donuts,435 Essex St,,,US,42.70661,-71.16442,"42.70661,-71.16442"
Dunkin Donuts,435 Newbury Street,,,US,42.59928,-70.96006,"42.59928,-70.96006"
Dunkin Donuts,4370 E Lucas Dr,,,US,30.1179,-94.1448,"30.1179,-94.1448"
Dunkin Donuts,44 Dodge St,,,US,42.57649,-70.89158,"42.57649,-70.89158"
Dunkin Donuts,44 Great Rd,,,US,42.4751,-71.40886,"42.4751,-71.40886"
Dunkin Donuts,44 Portsmouth Ave,,,US,43.00256,-70.91967,"43.00256,-70.91967"
Dunkin Donuts,440 Middlesex Rd,,,US,42.69616,-71.43838,"42.69616,-71.43838"
Dunkin Donuts,4400 Nw 39th St,,,US,35.51103,-97.5991,"35.51103,-97.5991"
Dunkin Donuts,4416 Wyoming Blvd Ne,,,US,35.12981,-106.551,"35.12981,-106.551"
Dunkin Donuts,443 Chelmsford St,,,US,42.62795,-71.32242,"42.62795,-71.32242"
Dunkin Donuts,443 Lafayette Rd,,,US,42.88718,-70.87107,"42.88718,-70.87107"
Dunkin Donuts,448 Main St,,,US,42.37069,-71.19522,"42.37069,-71.19522"
Dunkin Donuts,45 Storey Ave,,,US,42.81997,-70.90896,"42.81997,-70.90896"
Dunkin Donuts,450 Broadway,,,US,42.73713,-71.19485,"42.73713,-71.19485"
Dunkin Donuts,450 Highland Ave,,,US,42.49349,-70.93435,"42.49349,-70.93435"
Dunkin Donuts,450 Paradise Rd,,,US,42.4822,-70.90223,"42.4822,-70.90223"
Dunkin Donuts,4501 WELLINGTON ST, VERDUN, QC H4G1W8,Canada,45.45923,-73.56737,"45.45923,-73.56737"
Dunkin Donuts,451 Massachusetts Ave,,,US,42.59541,-71.75045,"42.59541,-71.75045"
Dunkin Donuts,454 Main St,,,US,42.52126,-71.10342,"42.52126,-71.10342"
Dunkin Donuts,4540 Jean-Talon St, St Leonard, QC H1S1K2,Canada,45.57094,-73.58761,"45.57094,-73.58761"
Dunkin Donuts,455 S. Broadway,,,US,39.88806,-75.12072,"39.88806,-75.12072"
Dunkin Donuts,456 Main Street,,,US,42.5369,-71.74568,"42.5369,-71.74568"
Dunkin Donuts,457 Brookline Ave,,,US,42.33767,-71.10888,"42.33767,-71.10888"
Dunkin Donuts,459 Boston Road,,,US,42.5563,-71.26714,"42.5563,-71.26714"
Dunkin Donuts,46 Toll Rd,,,US,42.86831,-70.88093,"42.86831,-70.88093"
Dunkin Donuts,460 Boulevard Labelle, Laval, QC H7P2P1,Canada,45.55552,-73.68759,"45.55552,-73.68759"
Dunkin Donuts,460 King St,,,US,42.54586,-71.47469,"42.54586,-71.47469"
Dunkin Donuts,464 Lowell St,,,US,42.70327,-71.21525,"42.70327,-71.21525"
Dunkin Donuts,4676 E Grant Rd,,,US,32.25048,-110.8927,"32.25048,-110.8927"
Dunkin Donuts,47 E. State St.,,,US,40.22,-74.76509,"40.22,-74.76509"
Dunkin Donuts,470 Lynn Fells Pkwy,,,US,42.46392,-71.06219,"42.46392,-71.06219"
Dunkin Donuts,470 Route 101,,,US,42.91214,-71.5562,"42.91214,-71.5562"
Dunkin Donuts,4700 N Broad St,,,US,40.02475,-75.14806,"40.02475,-75.14806"
Dunkin Donuts,471 Amherst St,,,US,42.79135,-71.51995,"42.79135,-71.51995"
Dunkin Donuts,471 BOUL DES LAURENTIDES, ST ANTOINE, QC J7Z4L9,Canada,45.76288,-73.99315,"45.76288,-73.99315"
Dunkin Donuts,4727 E Bell Rd,,,US,33.6403,-111.9795,"33.6403,-111.9795"
Dunkin Donuts,477 Beach St,,,US,42.40981,-70.99869,"42.40981,-70.99869"
Dunkin Donuts,478 Broadway,,,US,42.39327,-71.03362,"42.39327,-71.03362"
Dunkin Donuts,482 W Broadway,,,US,42.33576,-71.04592,"42.33576,-71.04592"
Dunkin Donuts,486 High St,,,US,42.42104,-71.13284,"42.42104,-71.13284"
Dunkin Donuts,49 Mount Auburn St,,,US,42.36608,-71.18218,"42.36608,-71.18218"
Dunkin Donuts,49 River St,,,US,42.36873,-71.21801,"42.36873,-71.21801"
Dunkin Donuts,490 ST JOSEPH BOULEVARD, DRUMMONDVILLE, QC J2C2B7,Canada,45.8942,-72.51609,"45.8942,-72.51609"
Dunkin Donuts,495 Chelmsford St,,,US,42.62663,-71.323,"42.62663,-71.323"
Dunkin Donuts,498 Mystic Ave,,,US,42.39671,-71.09081,"42.39671,-71.09081"
Dunkin Donuts,5 3rd St,,,US,42.37228,-71.07978,"42.37228,-71.07978"
Dunkin Donuts,5 Ayers Village Rd,,,US,42.79188,-71.18409,"42.79188,-71.18409"
Dunkin Donuts,5 Bennington St,,,US,42.3973,-70.99223,"42.3973,-70.99223"
Dunkin Donuts,5 Cambridge Park Drive,,,US,42.39481,-71.14084,"42.39481,-71.14084"
Dunkin Donuts,5 Crystal Ave,,,US,42.88352,-71.32449,"42.88352,-71.32449"
Dunkin Donuts,5 E Crescent Blvd,,,US,39.92119,-75.08743,"39.92119,-75.08743"
Dunkin Donuts,5 East St,,,US,42.612,-71.23343,"42.612,-71.23343"
Dunkin Donuts,5 Macdade Blvd,,,US,39.91822,-75.26493,"39.91822,-75.26493"
Dunkin Donuts,5 Waltham St,,,US,42.43233,-71.44925,"42.43233,-71.44925"
Dunkin Donuts,50 Broadway,,,US,42.39645,-71.06563,"42.39645,-71.06563"
Dunkin Donuts,50 Independence Way,,,US,42.54967,-70.94108,"42.54967,-70.94108"
Dunkin Donuts,50 Leominster Rd,,,US,42.44245,-71.75288,"42.44245,-71.75288"
Dunkin Donuts,50 S Broadway,,,US,42.6985,-71.16384,"42.6985,-71.16384"
Dunkin Donuts,50 Western Ave,,,US,42.48666,-70.93939,"42.48666,-70.93939"
Dunkin Donuts,500 Groton Rd,,,US,42.62578,-71.421,"42.62578,-71.421"
Dunkin Donuts,5001 Rising Sun Ave,,,US,40.0265,-75.12141,"40.0265,-75.12141"
Dunkin Donuts,504 Broadway,,,US,42.3973,-71.10475,"42.3973,-71.10475"
Dunkin Donuts,505 Old York Rd,,,US,40.09906,-75.12612,"40.09906,-75.12612"
Dunkin Donuts,505 RUE ST. CATHERINE E., MONTREAL, QC H2L2C9,Canada,45.51471,-73.55956,"45.51471,-73.55956"
Dunkin Donuts,508 Lincoln Ave,,,US,42.44823,-71.00982,"42.44823,-71.00982"
Dunkin Donuts,509 Cambridge St,,,US,42.3532,-71.13877,"42.3532,-71.13877"
Dunkin Donuts,510 Harvey Rd,,,US,42.93488,-71.42529,"42.93488,-71.42529"
Dunkin Donuts,510 Southampton St,,,US,42.32972,-71.0579,"42.32972,-71.0579"
Dunkin Donuts,5100 City Ave,,,US,39.99777,-75.23355,"39.99777,-75.23355"
Dunkin Donuts,511 Germantown Pike,,,US,40.11549,-75.28597,"40.11549,-75.28597"
Dunkin Donuts,514 Daniel Webster Hwy,,,US,42.87329,-71.48979,"42.87329,-71.48979"
Dunkin Donuts,515 Loudon Rd (Rt. 106),,,US,43.21938,-71.49992,"43.21938,-71.49992"
Dunkin Donuts,515 Pawtucket Blvd.,,,US,42.64094,-71.35279,"42.64094,-71.35279"
Dunkin Donuts,517 Concord Ave,,,US,42.38755,-71.14195,"42.38755,-71.14195"
Dunkin Donuts,519 Somerville Ave,,,US,42.38325,-71.10591,"42.38325,-71.10591"
Dunkin Donuts,52 Church St,,,US,42.38712,-71.19039,"42.38712,-71.19039"
Dunkin Donuts,5200 BOUL. COUSINEAU, SAINT-HUBERT, QC J3Y3K8,Canada,45.50168,-73.42352,"45.50168,-73.42352"
Dunkin Donuts,521 W 23rd St,,,US,38.94277,-95.2408,"38.94277,-95.2408"
Dunkin Donuts,5233 Torresdale Ave #45,,,US,40.0133,-75.06925,"40.0133,-75.06925"
Dunkin Donuts,524 Broadway,,,US,42.40938,-71.05366,"42.40938,-71.05366"
Dunkin Donuts,5245 Marleton Pike,,,US,39.9328,-75.06538,"39.9328,-75.06538"
Dunkin Donuts,526 Central Ave,,,US,43.19935,-70.87515,"43.19935,-70.87515"
Dunkin Donuts,527 Lowell St,,,US,42.54543,-70.98083,"42.54543,-70.98083"
Dunkin Donuts,5272 Frankford Ave #8,,,US,40.02311,-75.07731,"40.02311,-75.07731"
Dunkin Donuts,53 Church St,,,US,42.94627,-71.05763,"42.94627,-71.05763"
Dunkin Donuts,53 Linden St,,,US,42.37875,-71.22336,"42.37875,-71.22336"
Dunkin Donuts,53 Revere Beach Pkwy,,,US,42.40413,-71.0792,"42.40413,-71.0792"
Dunkin Donuts,530 Commonwealth Ave,,,US,42.34864,-71.09611,"42.34864,-71.09611"
Dunkin Donuts,532 W. Lehigh Ave #46,,,US,39.99216,-75.1417,"39.99216,-75.1417"
Dunkin Donuts,533 Broadway,,,US,42.48321,-71.02016,"42.48321,-71.02016"
Dunkin Donuts,5346 E 22nd St,,,US,32.20664,-110.8781,"32.20664,-110.8781"
Dunkin Donuts,535  ARTHUR SAUVE BLVD, ST EUSTACHE, QC J7P4X4,Canada,45.5721,-73.91251,"45.5721,-73.91251"
Dunkin Donuts,535 Chickering Rd,,,US,42.69521,-71.11922,"42.69521,-71.11922"
Dunkin Donuts,538 Main St,,,US,42.45205,-71.13681,"42.45205,-71.13681"
Dunkin Donuts,539 S Broadway,,,US,42.74196,-71.19835,"42.74196,-71.19835"
Dunkin Donuts,54 Main St,,,US,42.34721,-71.54459,"42.34721,-71.54459"
Dunkin Donuts,540 Squire Rd,,,US,42.43042,-71.0208,"42.43042,-71.0208"
Dunkin Donuts,5401 N 5th St,,,US,40.0335,-75.131,"40.0335,-75.131"
Dunkin Donuts,5406 Bellaire Blvd,,,US,29.70572,-95.4749,"29.70572,-95.4749"
Dunkin Donuts,543 Amherst St,,,US,42.79633,-71.52885,"42.79633,-71.52885"
Dunkin Donuts,546 1st Nh Tpke,,,US,43.20936,-71.17995,"43.20936,-71.17995"
Dunkin Donuts,549 Doylestown Rd,,,US,40.26452,-75.22958,"40.26452,-75.22958"
Dunkin Donuts,55 Crystal Ave,,,US,42.89142,-71.32682,"42.89142,-71.32682"
Dunkin Donuts,5502 4th St Nw,,,US,35.13804,-106.6414,"35.13804,-106.6414"
Dunkin Donuts,5506-12 Chestnut St,,,US,39.95909,-75.23143,"39.95909,-75.23143"
Dunkin Donuts,554 2nd Street Pike,,,US,40.1705,-75.04514,"40.1705,-75.04514"
Dunkin Donuts,555 Lincoln Highway,,,US,40.19085,-74.83266,"40.19085,-74.83266"
Dunkin Donuts,555 North Shore Rd,,,US,42.42889,-70.98179,"42.42889,-70.98179"
Dunkin Donuts,555 St Charles Borromee, Joliette, QC J8E4S6,Canada,46.03679,-73.44231,"46.03679,-73.44231"
Dunkin Donuts,556 Nashua St,,,US,42.82368,-71.62621,"42.82368,-71.62621"
Dunkin Donuts,56 Concord Rd,,,US,43.14847,-71.00288,"43.14847,-71.00288"
Dunkin Donuts,5625 GRANDE-ALLEE, BROSSARD, QC J4Z3G3,Canada,45.47508,-73.4439,"45.47508,-73.4439"
Dunkin Donuts,564 Broadway,,,US,42.47579,-71.02329,"42.47579,-71.02329"
Dunkin Donuts,57 Eastern Ave,,,US,42.4239,-71.06553,"42.4239,-71.06553"
Dunkin Donuts,57 Rockingham Rd,,,US,42.81886,-71.25177,"42.81886,-71.25177"
Dunkin Donuts,570 Mast Rd,,,US,42.99932,-71.51597,"42.99932,-71.51597"
Dunkin Donuts,5701 Germantown Ave,,,US,40.03599,-75.17472,"40.03599,-75.17472"
Dunkin Donuts,5753 Wayne Ave,,,US,40.03228,-75.1796,"40.03228,-75.1796"
Dunkin Donuts,577 Walnut St,,,US,42.47409,-70.98974,"42.47409,-70.98974"
Dunkin Donuts,579 Andover St,,,US,42.69049,-71.17238,"42.69049,-71.17238"
Dunkin Donuts,58 Broadway,,,US,42.71917,-71.18011,"42.71917,-71.18011"
Dunkin Donuts,5825 Henri Bourassa West, Montreal, QC H1G2V1,Canada,45.60532,-73.62423,"45.60532,-73.62423"
Dunkin Donuts,586 Main Street,,,US,42.5431,-71.16867,"42.5431,-71.16867"
Dunkin Donuts,590 West Street Rd,,,US,40.20527,-75.09766,"40.20527,-75.09766"
Dunkin Donuts,5901 Rising Sun Ave,,,US,40.04399,-75.10243,"40.04399,-75.10243"
Dunkin Donuts,591 Moody St,,,US,42.36608,-71.23825,"42.36608,-71.23825"
Dunkin Donuts,6 Bell Ave,,,US,43.029,-71.4405,"43.029,-71.4405"
Dunkin Donuts,6 Colby Cor,,,US,42.89094,-71.14058,"42.89094,-71.14058"
Dunkin Donuts,6 Horse Corner Rd,,,US,43.24318,-71.40515,"43.24318,-71.40515"
Dunkin Donuts,6 Kugler Rd,,,US,40.2368,-75.53602,"40.2368,-75.53602"
Dunkin Donuts,6 Lord Sq,,,US,42.68461,-70.84404,"42.68461,-70.84404"
Dunkin Donuts,6 Thatcher St.,,,US,42.61841,-70.63957,"42.61841,-70.63957"
Dunkin Donuts,6 Washington St,,,US,42.57501,-71.07199,"42.57501,-71.07199"
Dunkin Donuts,60 Everett St,,,US,42.35569,-71.13877,"42.35569,-71.13877"
Dunkin Donuts,600 BOULEVARD LAURIER LOCAL E9, BELOEIL, QC J3G4J2,Canada,45.56071,-73.20818,"45.56071,-73.20818"
Dunkin Donuts,601 Donald Lynch Blvd,,,US,42.35447,-71.61233,"42.35447,-71.61233"
Dunkin Donuts,6017 N Broad St,,,US,40.04468,-75.14329,"40.04468,-75.14329"
Dunkin Donuts,605 RUE THIBEAU, CAP-DE-LA-MADELEINE, QC G8T6Z6,Canada,46.37821,-72.54042,"46.37821,-72.54042"
Dunkin Donuts,607 E Market St,,,US,39.9637,-75.59591,"39.9637,-75.59591"
Dunkin Donuts,608 S Union St,,,US,42.68615,-71.15255,"42.68615,-71.15255"
Dunkin Donuts,61 Main St,,,US,42.86926,-70.88347,"42.86926,-70.88347"
Dunkin Donuts,61 Portsmouth Ave,,,US,42.9847,-70.93801,"42.9847,-70.93801"
Dunkin Donuts,61 S Union St,,,US,42.70046,-71.15361,"42.70046,-71.15361"
Dunkin Donuts,6110 Woodland Ave,,,US,39.92888,-75.22937,"39.92888,-75.22937"
Dunkin Donuts,612 Middlesex Tpke,,,US,42.53319,-71.26295,"42.53319,-71.26295"
Dunkin Donuts,6130 Sherbrooke West, Montreal, QC H4A1Y3,Canada,45.57867,-73.54547,"45.57867,-73.54547"
Dunkin Donuts,614 Broadway,,,US,42.78425,-71.12531,"42.78425,-71.12531"
Dunkin Donuts,616 Massachusetts Ave,,,US,42.33709,-71.07745,"42.33709,-71.07745"
Dunkin Donuts,616 Massachusetts Ave,,,US,42.36507,-71.10353,"42.36507,-71.10353"
Dunkin Donuts,619 Broadway,,,US,42.4415,-71.03102,"42.4415,-71.03102"
Dunkin Donuts,6190 N Front St,,,US,40.04426,-75.11976,"40.04426,-75.11976"
Dunkin Donuts,6191 Ridge Ave,,,US,40.03551,-75.21707,"40.03551,-75.21707"
Dunkin Donuts,62 Manchester St,,,US,43.19108,-71.51364,"43.19108,-71.51364"
Dunkin Donuts,62 Montvale Ave,,,US,42.48125,-71.10787,"42.48125,-71.10787"
Dunkin Donuts,62 State St,,,US,42.80974,-70.87054,"42.80974,-70.87054"
Dunkin Donuts,620 Avenue Atwater, Montreal, QC H4C2G6,Canada,45.48302,-73.57916,"45.48302,-73.57916"
Dunkin Donuts,620 Fellsway,,,US,42.40721,-71.08296,"42.40721,-71.08296"
Dunkin Donuts,626 Great Rd,,,US,42.43461,-71.53039,"42.43461,-71.53039"
Dunkin Donuts,630 E Fillmore St,,,US,38.87425,-104.8129,"38.87425,-104.8129"
Dunkin Donuts,630 Washington St.,,,US,42.35209,-71.06245,"42.35209,-71.06245"
Dunkin Donuts,631 Southmore Ave,,,US,29.69084,-95.2055,"29.69084,-95.2055"
Dunkin Donuts,632 Main St,,,US,42.49704,-71.06913,"42.49704,-71.06913"
Dunkin Donuts,6323 Castor Ave,,,US,40.03827,-75.07832,"40.03827,-75.07832"
Dunkin Donuts,634 Market St,,,US,39.95061,-75.15108,"39.95061,-75.15108"
Dunkin Donuts,6343 Keystone St,,,US,40.01813,-75.05076,"40.01813,-75.05076"
Dunkin Donuts,637 32ND AVENUE, LACHINE, QC H8T3G6,Canada,45.44058,-73.69252,"45.44058,-73.69252"
Dunkin Donuts,6391 Oxford Ave,,,US,40.04526,-75.08828,"40.04526,-75.08828"
Dunkin Donuts,6401 Roosevelt Blvd,,,US,40.03488,-75.0692,"40.03488,-75.0692"
Dunkin Donuts,6409 Torresdale Ave #13,,,US,40.02163,-75.05145,"40.02163,-75.05145"
Dunkin Donuts,6430 RUE ST-DENIS, MONTREAL, QC H2S2R8,Canada,45.53368,-73.60431,"45.53368,-73.60431"
Dunkin Donuts,647 Boston Rd,,,US,42.5413,-71.2488,"42.5413,-71.2488"
Dunkin Donuts,649 Squire Rd,,,US,42.43122,-71.02239,"42.43122,-71.02239"
Dunkin Donuts,65 Jfk St,,,US,42.37377,-71.11906,"42.37377,-71.11906"
Dunkin Donuts,651 Rogers St,,,US,42.63087,-71.28198,"42.63087,-71.28198"
Dunkin Donuts,653 E Broad St,,,US,40.31408,-75.31247,"40.31408,-75.31247"
Dunkin Donuts,654 Neshaminy Mall,,,US,40.13653,-74.95626,"40.13653,-74.95626"
Dunkin Donuts,655 Salem St,,,US,42.43307,-71.04703,"42.43307,-71.04703"
Dunkin Donuts,656 Suncook Valley Hwy,,,US,43.29999,-71.34733,"43.29999,-71.34733"
Dunkin Donuts,66 E Main St #68,,,US,42.7216,-70.98751,"42.7216,-70.98751"
Dunkin Donuts,6606 E Mckellips Rd,,,US,33.45188,-111.6878,"33.45188,-111.6878"
Dunkin Donuts,6608 Frankford Ave,,,US,40.0309,-75.05473,"40.0309,-75.05473"
Dunkin Donuts,6620 N. Broad St,,,US,40.05401,-75.1416,"40.05401,-75.1416"
Dunkin Donuts,6660 Delmonico Dr,,,US,38.92883,-104.8307,"38.92883,-104.8307"
Dunkin Donuts,67 Main St,,,US,42.49779,-71.10104,"42.49779,-71.10104"
Dunkin Donuts,672 Lowell St,,,US,42.54962,-71.00712,"42.54962,-71.00712"
Dunkin Donuts,68 Boston St,,,US,42.51936,-70.90981,"42.51936,-70.90981"
Dunkin Donuts,681 Boston Post Road,,,US,42.34992,-71.50479,"42.34992,-71.50479"
Dunkin Donuts,6830 S. Crescent Blvd,,,US,39.93704,-75.07625,"39.93704,-75.07625"
Dunkin Donuts,692 Cochituate Rd,,,US,42.30852,-71.38443,"42.30852,-71.38443"
Dunkin Donuts,7 Acton Rd,,,US,42.59504,-71.35348,"42.59504,-71.35348"
Dunkin Donuts,7 Commercial Street,,,US,42.41055,-71.08842,"42.41055,-71.08842"
Dunkin Donuts,7 Dover St,,,US,43.13389,-70.91951,"43.13389,-70.91951"
Dunkin Donuts,7 Exeter Rd,,,US,43.03568,-71.06913,"43.03568,-71.06913"
Dunkin Donuts,7 Freetown Rd,,,US,43.03706,-71.16331,"43.03706,-71.16331"
Dunkin Donuts,7 Longhill Rd,,,US,43.03992,-71.19358,"43.03992,-71.19358"
Dunkin Donuts,7 Post Office Sq,,,US,42.51432,-71.01306,"42.51432,-71.01306"
Dunkin Donuts,70 E India Row,,,US,42.35813,-71.05069,"42.35813,-71.05069"
Dunkin Donuts,70 Storey Ave,,,US,42.81981,-70.90997,"42.81981,-70.90997"
Dunkin Donuts,70 Wellington North, Sherbrooke, QC JIH5B8,Canada,45.40257,-71.89104,"45.40257,-71.89104"
Dunkin Donuts,700 N Zaragoza Rd,,,US,31.70408,-106.3187,"31.70408,-106.3187"
Dunkin Donuts,700 Pleasant St,,,US,42.36714,-71.2134,"42.36714,-71.2134"
Dunkin Donuts,7000 Chester Ave,,,US,39.92368,-75.24532,"39.92368,-75.24532"
Dunkin Donuts,7000 W Military Dr,,,US,29.40834,-98.6292,"29.40834,-98.6292"
Dunkin Donuts,701 E Chelton Ave,,,US,40.04447,-75.16614,"40.04447,-75.16614"
Dunkin Donuts,701 Market St,,,US,39.95103,-75.15215,"39.95103,-75.15215"
Dunkin Donuts,701 Salem St,,,US,42.67088,-71.08673,"42.67088,-71.08673"
Dunkin Donuts,702 White Horse Pike,,,US,39.9099,-75.0834,"39.9099,-75.0834"
Dunkin Donuts,709 Mcgrath Hwy,,,US,42.39046,-71.08715,"42.39046,-71.08715"
Dunkin Donuts,71 Essex Ave,,,US,42.612,-70.68144,"42.612,-70.68144"
Dunkin Donuts,7104 Ridge Ave,,,US,40.04457,-75.23059,"40.04457,-75.23059"
Dunkin Donuts,711 E Broadway Rd,,,US,33.40751,-111.9277,"33.40751,-111.9277"
Dunkin Donuts,712 N Lansdowne Ave,,,US,39.95818,-75.28735,"39.95818,-75.28735"
Dunkin Donuts,715 Boylston St,,,US,42.34949,-71.07994,"42.34949,-71.07994"
Dunkin Donuts,717 E Girard Ave,,,US,39.97196,-75.12565,"39.97196,-75.12565"
Dunkin Donuts,720 Lafayette Rd.,,,US,42.89597,-70.87054,"42.89597,-70.87054"
Dunkin Donuts,7221 Torresdale Ave,,,US,40.02936,-75.03623,"40.02936,-75.03623"
Dunkin Donuts,725 Milford Rd,,,US,42.80354,-71.55117,"42.80354,-71.55117"
Dunkin Donuts,727 S Main St,,,US,42.7586,-71.09839,"42.7586,-71.09839"
Dunkin Donuts,7275 Sherbrooke East,MONTREAL,QC H1N1E9,Canada,45.59012,-73.53905,"45.59012,-73.53905"
Dunkin Donuts,729 Boston Rd,,,US,42.53504,-71.23847,"42.53504,-71.23847"
Dunkin Donuts,7300 Rising Sun Ave,,,US,40.06217,-75.08356,"40.06217,-75.08356"
Dunkin Donuts,733 Turnpike St,,,US,42.66065,-71.10893,"42.66065,-71.10893"
Dunkin Donuts,733 W Lancaster Ave,,,US,40.01972,-75.31448,"40.01972,-75.31448"
Dunkin Donuts,736 Cambridge St,,,US,42.34949,-71.14837,"42.34949,-71.14837"
Dunkin Donuts,74 Plaistow Rd.,,,US,42.83094,-71.10798,"42.83094,-71.10798"
Dunkin Donuts,75 3rd Ave,,,US,42.39475,-71.26067,"42.39475,-71.26067"
Dunkin Donuts,75 Main St.,,,US,42.46837,-71.14805,"42.46837,-71.14805"
Dunkin Donuts,75 Middlesex Tpke,,,US,42.47574,-71.21366,"42.47574,-71.21366"
Dunkin Donuts,75 Old Colony Ave,,,US,42.33592,-71.05609,"42.33592,-71.05609"
Dunkin Donuts,750 Mast Rd,,,US,42.99047,-71.50013,"42.99047,-71.50013"
Dunkin Donuts,750 Washington St,,,US,42.35013,-71.0633,"42.35013,-71.0633"
Dunkin Donuts,7500 Frankford Av,,,US,40.03864,-75.03623,"40.03864,-75.03623"
Dunkin Donuts,7501 Highway 6 N,,,US,29.8864,-95.6441,"29.8864,-95.6441"
Dunkin Donuts,7512 Bustleton Ave,,,US,40.05131,-75.05706,"40.05131,-75.05706"
Dunkin Donuts,7520 City Line Ave,,,US,39.97981,-75.26975,"39.97981,-75.26975"
Dunkin Donuts,755 Main St,,,US,42.79724,-71.08811,"42.79724,-71.08811"
Dunkin Donuts,76 Main St.,,,US,42.52842,-71.75845,"42.52842,-71.75845"
Dunkin Donuts,76 Middlesex Ave,,,US,42.39348,-71.08349,"42.39348,-71.08349"
Dunkin Donuts,7601 Lindbergh Blvd,,,US,39.90513,-75.23758,"39.90513,-75.23758"
Dunkin Donuts,764 Elm St,,,US,42.84213,-71.71351,"42.84213,-71.71351"
Dunkin Donuts,766 Highway 33,,,US,40.23092,-74.67615,"40.23092,-74.67615"
Dunkin Donuts,7721 TASCHEREAU BLVD, BROSSARD, QC J4Y1A3,Canada,45.45327,-73.46607,"45.45327,-73.46607"
Dunkin Donuts,78 Sheffield St.,,,US,42.93901,-71.42603,"42.93901,-71.42603"
Dunkin Donuts,784 River St,,,US,42.77105,-71.11466,"42.77105,-71.11466"
Dunkin Donuts,79 Andover St,,,US,42.5528,-70.96006,"42.5528,-70.96006"
Dunkin Donuts,795 FIRESTONE BLVD, JOLIETTE, QC J6E2W4,Canada,46.03679,-73.41907,"46.03679,-73.41907"
Dunkin Donuts,797 Main St,,,US,42.45915,-71.13983,"42.45915,-71.13983"
Dunkin Donuts,7970-80 Dungan Road,,,US,40.06789,-75.06835,"40.06789,-75.06835"
Dunkin Donuts,7995 HENRI-BROUSSA BLVD E, MONTREAL, QC H1N1N9,Canada,45.58011,-73.53768,"45.58011,-73.53768"
Dunkin Donuts,8 Broadway,,,US,42.5025,-71.01481,"42.5025,-71.01481"
Dunkin Donuts,8 Harvard St,,,US,42.33343,-71.11906,"42.33343,-71.11906"
Dunkin Donuts,8 Lancaster St,,,US,42.5236,-71.75845,"42.5236,-71.75845"
Dunkin Donuts,8 Liberty Sq, East Stroudsburg, PA 18301,Canada,41.0572,-75.1211,"41.0572,-75.1211"
Dunkin Donuts,8 Park Plz,,,US,42.35156,-71.06828,"42.35156,-71.06828"
Dunkin Donuts,8 Stiles Rd,,,US,42.77503,-71.25002,"42.77503,-71.25002"
Dunkin Donuts,8 Whtie Ave,,,US,42.97484,-71.51401,"42.97484,-71.51401"
Dunkin Donuts,80 Boston St,,,US,42.47579,-70.95746,"42.47579,-70.95746"
Dunkin Donuts,80 Boylston St,,,US,42.35225,-71.06505,"42.35225,-71.06505"
Dunkin Donuts,80 Chelmsford Rd,,,US,42.58656,-71.30408,"42.58656,-71.30408"
Dunkin Donuts,80 Drum Hill Rd,,,US,42.62414,-71.3628,"42.62414,-71.3628"
Dunkin Donuts,80 Macy St,,,US,42.84663,-70.91495,"42.84663,-70.91495"
Dunkin Donuts,800 Bustleton Pke,,,US,40.20734,-75.01148,"40.20734,-75.01148"
Dunkin Donuts,8000 Pine Rd,,,US,40.07738,-75.08531,"40.07738,-75.08531"
Dunkin Donuts,8005 Rue Langelier, Montreal, QC H1P2X6,Canada,45.59488,-73.58159,"45.59488,-73.58159"
Dunkin Donuts,801 N Olden Ave,,,US,40.2367,-74.74786,"40.2367,-74.74786"
Dunkin Donuts,802 Lafayette Rd,,,US,43.05126,-70.77074,"43.05126,-70.77074"
Dunkin Donuts,802b Woodlane Road,,,US,40.01166,-74.80256,"40.01166,-74.80256"
Dunkin Donuts,803 W Centerville Rd,,,US,32.86111,-96.6427,"32.86111,-96.6427"
Dunkin Donuts,8035 AVENUE DES EGLISES, CHARNY, QC G6X1X6,Canada,46.72295,-71.26677,"46.72295,-71.26677"
Dunkin Donuts,804 N Main St,,,US,42.55709,-71.77175,"42.55709,-71.77175"
Dunkin Donuts,8041 N Mesa St,,,US,31.84102,-106.5785,"31.84102,-106.5785"
Dunkin Donuts,806 W Colorado Ave,,,US,38.83385,-104.8396,"38.83385,-104.8396"
Dunkin Donuts,808 Chestnut St,,,US,39.94949,-75.15421,"39.94949,-75.15421"
Dunkin Donuts,809 S. Broad St,,,US,39.94048,-75.16603,"39.94048,-75.16603"
Dunkin Donuts,81 Cheltenham Ave,,,US,40.04972,-75.11589,"40.04972,-75.11589"
Dunkin Donuts,81 Hamilton St,,,US,40.2164,-74.67313,"40.2164,-74.67313"
Dunkin Donuts,81 Tyngsboro Rd,,,US,42.64343,-71.38941,"42.64343,-71.38941"
Dunkin Donuts,810 Welsh Rd,,,US,40.1766,-75.17605,"40.1766,-75.17605"
Dunkin Donuts,813 Adams Ave,,,US,40.02613,-75.09713,"40.02613,-75.09713"
Dunkin Donuts,814 Fm 1960 Rd W,,,US,30.01674,-95.4441,"30.01674,-95.4441"
Dunkin Donuts,819 Western Ave,,,US,42.45978,-70.96901,"42.45978,-70.96901"
Dunkin Donuts,82 Lafayette Rd,,,US,42.97669,-70.83482,"42.97669,-70.83482"
Dunkin Donuts,8250 Ogontz Ave,,,US,40.0777,-75.15978,"40.0777,-75.15978"
Dunkin Donuts,8275 W Lake Pleasant Pkwy,,,US,33.67075,-112.2393,"33.67075,-112.2393"
Dunkin Donuts,829 Washington St,,,US,42.35177,-71.20709,"42.35177,-71.20709"
Dunkin Donuts,8298 Bustleton Ave,,,US,40.06471,-75.05171,"40.06471,-75.05171"
Dunkin Donuts,83 Everett Ave,,,US,42.3938,-71.03897,"42.3938,-71.03897"
Dunkin Donuts,8333 Bristol Pike,,,US,40.14093,-74.81787,"40.14093,-74.81787"
Dunkin Donuts,839 N Broad St,,,US,39.96926,-75.15978,"39.96926,-75.15978"
Dunkin Donuts,84 Massachusetts Ave,,,US,42.35919,-71.09399,"42.35919,-71.09399"
Dunkin Donuts,84 Route 101a,,,US,42.8116,-71.58127,"42.8116,-71.58127"
Dunkin Donuts,845 STE-CATHERINE,MONTREAL,QC H2L4M4,Canada,45.51566,-73.55891,"45.51566,-73.55891"
Dunkin Donuts,847 Dorchester Ave,,,US,42.32193,-71.05699,"42.32193,-71.05699"
Dunkin Donuts,85 Wilmington Rd,,,US,42.52996,-71.20566,"42.52996,-71.20566"
Dunkin Donuts,850 ST-MAURICE, TROIS RIVIERES, QC G9A3P6,Canada,46.35173,-72.54669,"46.35173,-72.54669"
Dunkin Donuts,855 Candia Rd,,,US,42.98459,-71.41284,"42.98459,-71.41284"
Dunkin Donuts,859 Main St,,,US,42.37642,-71.24541,"42.37642,-71.24541"
Dunkin Donuts,86 Broadway,,,US,42.49641,-71.0156,"42.49641,-71.0156"
Dunkin Donuts,8621 New Falls Rd,,,US,40.17241,-74.83383,"40.17241,-74.83383"
Dunkin Donuts,876 Edgell Rd,,,US,42.32845,-71.4361,"42.32845,-71.4361"
Dunkin Donuts,876 Lexington St,,,US,42.40535,-71.23433,"42.40535,-71.23433"
Dunkin Donuts,88 Derry Rd,,,US,42.77476,-71.44474,"42.77476,-71.44474"
Dunkin Donuts,880 Main St,,,US,42.50632,-71.16045,"42.50632,-71.16045"
Dunkin Donuts,881 W. Butler Pike,,,US,40.14045,-75.24309,"40.14045,-75.24309"
Dunkin Donuts,8902 Frankford Ave,,,US,40.05078,-75.01021,"40.05078,-75.01021"
Dunkin Donuts,891 Lancaster Ave,,,US,40.0486,-75.41487,"40.0486,-75.41487"
Dunkin Donuts,8950 Lacroix Blvd, Ville St. Georges, QC G5Y2B5,Canada,46.13076,-70.69681,"46.13076,-70.69681"
Dunkin Donuts,8960 SHERBROOKE STREET EAST, MONTREAL, QC H1L1C7,Canada,45.60655,-73.52895,"45.60655,-73.52895"
Dunkin Donuts,90 American Legion Highway,,,US,42.41166,-71.00288,"42.41166,-71.00288"
Dunkin Donuts,90 ROUTE 2011, HUDSON, QC J0P1H0,Canada,45.44806,-74.14041,"45.44806,-74.14041"
Dunkin Donuts,90 W River Rd,,,US,43.04814,-71.46075,"43.04814,-71.46075"
Dunkin Donuts,90 Washington St,,,US,42.3814,-71.08477,"42.3814,-71.08477"
Dunkin Donuts,901 W Chester Pike,,,US,39.97181,-75.31109,"39.97181,-75.31109"
Dunkin Donuts,903 Broadway,,,US,42.42072,-71.04358,"42.42072,-71.04358"
Dunkin Donuts,904 E University Blvd,,,US,32.23167,-110.9578,"32.23167,-110.9578"
Dunkin Donuts,9114 Dyer St,,,US,31.87044,-106.4278,"31.87044,-106.4278"
Dunkin Donuts,917 W Girard Ave # 31,,,US,39.97064,-75.15209,"39.97064,-75.15209"
Dunkin Donuts,9173 Roosevelt Blvd,,,US,40.07595,-75.03284,"40.07595,-75.03284"
Dunkin Donuts,92 Newbury St,,,US,42.56563,-70.97559,"42.56563,-70.97559"
Dunkin Donuts,920 N 11th St,,,US,30.0898,-94.1298,"30.0898,-94.1298"
Dunkin Donuts,921 Beech St,,,US,43.00738,-71.45773,"43.00738,-71.45773"
Dunkin Donuts,9240 State Rd,,,US,40.04638,-74.99405,"40.04638,-74.99405"
Dunkin Donuts,93 Main St,,,US,42.65398,-71.13904,"42.65398,-71.13904"
Dunkin Donuts,932 Lynnfield St,,,US,42.51183,-70.9926,"42.51183,-70.9926"
Dunkin Donuts,936 Broadway,,,US,42.40064,-71.02154,"42.40064,-71.02154"
Dunkin Donuts,937 Easton Rd,,,US,40.11708,-75.13715,"40.11708,-75.13715"
Dunkin Donuts,939 E Main St,,,US,40.10886,-75.32625,"40.10886,-75.32625"
Dunkin Donuts,940 Andover St,,,US,42.64613,-71.27053,"42.64613,-71.27053"
Dunkin Donuts,947 2nd St,,,US,42.9679,-71.48009,"42.9679,-71.48009"
Dunkin Donuts,9490 Blue Grass Rd,,,US,40.07616,-75.02526,"40.07616,-75.02526"
Dunkin Donuts,951 Bennington St,,,US,42.38617,-71.00776,"42.38617,-71.00776"
Dunkin Donuts,951 Worcester St,,,US,42.30476,-71.32268,"42.30476,-71.32268"
Dunkin Donuts,965 DE BOURGOGNE AVE, SAINTE-FOY, QC G1W2L4,Canada,46.76628,-71.31109,"46.76628,-71.31109"
Dunkin Donuts,97 Main St,,,US,42.57506,-71.11052,"42.57506,-71.11052"
Dunkin Donuts,98 Indian Rock Rd,,,US,42.80863,-71.27122,"42.80863,-71.27122"
Dunkin Donuts,980 Eastern Ave,,,US,42.43032,-71.04226,"42.43032,-71.04226"
Dunkin Donuts,982 Osgood St,,,US,42.71328,-71.11847,"42.71328,-71.11847"
Dunkin Donuts,9834 Bustleton Ave,,,US,40.09137,-75.03274,"40.09137,-75.03274"
Dunkin Donuts,99 Cambridge St,,,US,42.38246,-71.07904,"42.38246,-71.07904"
Dunkin Donuts,99 Charles St,,,US,42.42364,-71.0712,"42.42364,-71.0712"
Dunkin Donuts,99 High St,,,US,42.55932,-70.93107,"42.55932,-70.93107"
Dunkin Donuts,99 Old Rockingham Rd,,,US,42.80328,-71.24419,"42.80328,-71.24419"
Dunkin Donuts,99 Route 235, L&amp;apos;Ange-Gardien, QC JOE1EO,Canada,46.91727,-71.08972,"46.91727,-71.08972"
Dunkin Donuts,99 Winthrop Ave,,,US,42.68991,-71.14974,"42.68991,-71.14974"
Dunkin Donuts,99 Winthrop Ave,,,US,43.02895,-71.07438,"43.02895,-71.07438"
Dunkin Donuts,99 Winthrop Ave,,,US,42.68991,-71.14974,"42.68991,-71.14974"
Dunkin Donuts,990 ROUTE MARIE-VICTORIN, TRACY, QC J3R1L3,Canada,46.03994,-73.12818,"46.03994,-73.12818"
Dunkin Donuts,9900 Frankford Ave,,,US,40.06307,-74.98641,"40.06307,-74.98641"
Dunkin Donuts,Banknorth Garden,,,US,42.36571,-71.06267,"42.36571,-71.06267"
Dunkin Donuts,Boston Medical Center,,,US,42.33529,-71.07433,"42.33529,-71.07433"
Dunkin Donuts,,,,US,43.0507,-71.4376,"43.0507,-71.4376"
Dunkin Donuts,,,,US,33.62923,-83.97833,"33.62923,-83.97833"
Dunkin Donuts,10 Oak St Ext,,,US,42.10003,-71.06622,"42.10003,-71.06622"
Dunkin Donuts,1407 Hwy 20 W.,,,US,33.42378,-84.18488,"33.42378,-84.18488"
Dunkin Donuts,2115 E Main St,,,US,33.85598,-84.00131,"33.85598,-84.00131"
Dunkin Donuts,3153 Highway 278 NE,,,US,33.60284,-83.85824,"33.60284,-83.85824"
Dunkin Donuts,4152 Atlanta hwy,,,US,33.8445,-83.90949,"33.8445,-83.90949"
Dunkin Donuts,4760 Memorial Dr.,,,US,33.78482,-84.23542,"33.78482,-84.23542"
Dunkin Donuts,5161 Highway 78,,,US,33.81144,-84.14825,"33.81144,-84.14825"
Dunkin Donuts,5410 N Henry Blvd.,,,US,33.54998,-84.25505,"33.54998,-84.25505"
Dunkin Donuts,,,,US,36.91037,-76.07483,"36.91037,-76.07483"
Dunkin Donuts,,,,US,36.86506,-76.40991,"36.86506,-76.40991"
Dunkin Donuts,,,,US,36.91696,-76.20666,"36.91696,-76.20666"
Dunkin Donuts,,,,US,36.88703,-76.30245,"36.88703,-76.30245"
Dunkin Donuts,,,,US,36.8211,-76.31103,"36.8211,-76.31103"
Dunkin Donuts,,,,US,36.8631,-76.13388,"36.8631,-76.13388"
Dunkin Donuts,,,,US,36.83759,-76.18023,"36.83759,-76.18023"
Dunkin Donuts,,,,US,36.79718,-76.32614,"36.79718,-76.32614"
Dunkin Donuts,,,,US,36.96964,-76.4154,"36.96964,-76.4154"
Dunkin Donuts,,,,US,37.11981,-76.52938,"37.11981,-76.52938"
Dunkin Donuts,,,,US,36.79994,-76.22486,"36.79994,-76.22486"
Dunkin Donuts,,,,US,37.15375,-76.46209,"37.15375,-76.46209"
Dunkin Donuts,,,,US,37.13678,-76.51909,"37.13678,-76.51909"
Dunkin Donuts,,,,US,36.84171,-76.05525,"36.84171,-76.05525"
Dunkin Donuts,,,,US,37.04202,-76.38245,"37.04202,-76.38245"
Dunkin Donuts,,,,US,36.81615,-76.1095,"36.81615,-76.1095"
Dunkin Donuts,,,,US,36.7681,-76.25182,"36.7681,-76.25182"
Dunkin Donuts,,,,US,37.05408,-76.40717,"37.05408,-76.40717"
Dunkin Donuts,,,,US,37.15922,-76.55548,"37.15922,-76.55548"
Dunkin Donuts,,,,US,36.91531,-76.22039,"36.91531,-76.22039"
Dunkin Donuts,1890 Highway 20 SE,,,US,33.63766,-84.01426,"33.63766,-84.01426"
Dunkin Donuts,,,,US,44.57698,-72.59505,"44.57698,-72.59505"
Dunkin Donuts,,,,US,42.63532,-73.11334,"42.63532,-73.11334"
Dunkin Donuts,,,,US,42.70396,-73.18834,"42.70396,-73.18834"
Dunkin Donuts,,,,US,42.67836,-73.10666,"42.67836,-73.10666"
Dunkin Donuts,,,,US,42.70062,-73.10847,"42.70062,-73.10847"
Dunkin Donuts,,,,US,42.85421,-73.34384,"42.85421,-73.34384"
Dunkin Donuts,,,,US,42.47091,-72.61488,"42.47091,-72.61488"
Dunkin Donuts,,,,US,43.45168,-71.57364,"43.45168,-71.57364"
Dunkin Donuts,,,,US,42.88331,-73.19671,"42.88331,-73.19671"
Dunkin Donuts,,,,US,42.90053,-73.21129,"42.90053,-73.21129"
Dunkin Donuts,,,,US,43.27429,-71.46186,"43.27429,-71.46186"
Dunkin Donuts,,,,US,43.45772,-71.56161,"43.45772,-71.56161"
Dunkin Donuts,,,,US,43.45793,-71.56102,"43.45793,-71.56102"
Dunkin Donuts,,,,US,42.58529,-72.61281,"42.58529,-72.61281"
Dunkin Donuts,,,,US,42.60421,-72.59097,"42.60421,-72.59097"
Dunkin Donuts,,,,US,43.59732,-71.72829,"43.59732,-71.72829"
Dunkin Donuts,,,,US,42.6067,-72.57539,"42.6067,-72.57539"
Dunkin Donuts,,,,US,42.55715,-72.28728,"42.55715,-72.28728"
Dunkin Donuts,,,,US,42.58221,-72.25734,"42.58221,-72.25734"
Dunkin Donuts,,,,US,42.86608,-72.61572,"42.86608,-72.61572"
Dunkin Donuts,,,,US,42.83926,-72.56532,"42.83926,-72.56532"
Dunkin Donuts,,,,US,42.58524,-72.20688,"42.58524,-72.20688"
Dunkin Donuts,,,,US,42.85151,-72.54746,"42.85151,-72.54746"
Dunkin Donuts,,,,US,43.22866,-71.48296,"43.22866,-71.48296"
Dunkin Donuts,,,,US,43.46822,-71.46827,"43.46822,-71.46827"
Dunkin Donuts,,,,US,43.1738,-73.06055,"43.1738,-73.06055"
Dunkin Donuts,,,,US,44.41601,-73.2133,"44.41601,-73.2133"
Dunkin Donuts,,,,US,43.22447,-71.48884,"43.22447,-71.48884"
Dunkin Donuts,,,,US,43.51374,-71.4935,"43.51374,-71.4935"
Dunkin Donuts,,,,US,43.22314,-71.48969,"43.22314,-71.48969"
Dunkin Donuts,,,,US,44.4493,-73.20895,"44.4493,-73.20895"
Dunkin Donuts,,,,US,43.52408,-71.46732,"43.52408,-71.46732"
Dunkin Donuts,,,,US,44.45979,-73.20805,"44.45979,-73.20805"
Dunkin Donuts,,,,US,43.31081,-71.61519,"43.31081,-71.61519"
Dunkin Donuts,,,,US,44.47601,-73.21219,"44.47601,-73.21219"
Dunkin Donuts,,,,US,44.46493,-73.18123,"44.46493,-73.18123"
Dunkin Donuts,,,,US,43.64259,-72.11986,"43.64259,-72.11986"
Dunkin Donuts,,,,US,44.48052,-73.21553,"44.48052,-73.21553"
Dunkin Donuts,,,,US,44.44331,-73.12129,"44.44331,-73.12129"
Dunkin Donuts,,,,US,43.55455,-71.45635,"43.55455,-71.45635"
Dunkin Donuts,,,,US,44.46785,-73.17551,"44.46785,-73.17551"
Dunkin Donuts,,,,US,42.88469,-72.557,"42.88469,-72.557"
Dunkin Donuts,,,,US,44.4476,-73.10608,"44.4476,-73.10608"
Dunkin Donuts,,,,US,42.55868,-71.99075,"42.55868,-71.99075"
Dunkin Donuts,,,,US,43.56298,-71.44649,"43.56298,-71.44649"
Dunkin Donuts,,,,US,44.51126,-73.25104,"44.51126,-73.25104"
Dunkin Donuts,,,,US,43.69643,-71.63793,"43.69643,-71.63793"
Dunkin Donuts,,,,US,44.19644,-72.50236,"44.19644,-72.50236"
Dunkin Donuts,,,,US,44.20004,-72.50464,"44.20004,-72.50464"
Dunkin Donuts,,,,US,43.56664,-71.42566,"43.56664,-71.42566"
Dunkin Donuts,,,,US,42.57146,-71.99435,"42.57146,-71.99435"
Dunkin Donuts,,,,US,44.49806,-73.15765,"44.49806,-73.15765"
Dunkin Donuts,,,,US,44.51141,-73.18436,"44.51141,-73.18436"
Dunkin Donuts,,,,US,44.53627,-73.2478,"44.53627,-73.2478"
Dunkin Donuts,,,,US,43.9219,-72.6648,"43.9219,-72.6648"
Dunkin Donuts,,,,US,44.25532,-72.57539,"44.25532,-72.57539"
Dunkin Donuts,,,,US,44.49615,-73.12421,"44.49615,-73.12421"
Dunkin Donuts,,,,US,42.57628,-71.99865,"42.57628,-71.99865"
Dunkin Donuts,,,,US,43.4529,-71.21605,"43.4529,-71.21605"
Dunkin Donuts,,,,US,43.6605,-71.49626,"43.6605,-71.49626"
Dunkin Donuts,,,,US,43.29342,-70.99705,"43.29342,-70.99705"
Dunkin Donuts,,,,US,44.3539,-72.73683,"44.3539,-72.73683"
Dunkin Donuts,,,,US,43.25828,-71.57957,"43.25828,-71.57957"
Dunkin Donuts,,,,US,43.33328,-71.0076,"43.33328,-71.0076"
Dunkin Donuts,,,,US,44.50278,-73.03151,"44.50278,-73.03151"
Dunkin Donuts,,,,US,43.33444,-70.9741,"43.33444,-70.9741"
Dunkin Donuts,,,,US,43.71233,-71.45418,"43.71233,-71.45418"
Dunkin Donuts,,,,US,43.58524,-71.20661,"43.58524,-71.20661"
Dunkin Donuts,,,,US,44.14821,-72.03426,"44.14821,-72.03426"
Dunkin Donuts,,,,US,44.04305,-71.66973,"44.04305,-71.66973"
Dunkin Donuts,,,,US,43.70147,-71.10819,"43.70147,-71.10819"
Dunkin Donuts,,,,US,43.07988,-74.14891,"43.07988,-74.14891"
Dunkin Donuts,,,,US,44.80207,-73.08827,"44.80207,-73.08827"
Dunkin Donuts,,,,US,43.8328,-71.20799,"43.8328,-71.20799"
Dunkin Donuts,,,,US,44.83381,-73.07921,"44.83381,-73.07921"
Dunkin Donuts,,,,US,44.30482,-71.80355,"44.30482,-71.80355"
Dunkin Donuts,,,,US,44.41919,-72.01576,"44.41919,-72.01576"
Dunkin Donuts,,,,US,44.30726,-71.77499,"44.30726,-71.77499"
Dunkin Donuts,,,,US,43.9582,-71.16835,"43.9582,-71.16835"
Dunkin Donuts,,,,US,44.52053,-72.00082,"44.52053,-72.00082"
Dunkin Donuts,,,,US,44.01359,-71.1004,"44.01359,-71.1004"
Dunkin Donuts,,,,US,44.03235,-71.12097,"44.03235,-71.12097"
Dunkin Donuts,,,,US,44.37277,-71.61159,"44.37277,-71.61159"
Dunkin Donuts,,,,US,44.00065,-70.99753,"44.00065,-70.99753"
Dunkin Donuts,,,,US,44.4952,-71.57449,"44.4952,-71.57449"
Dunkin Donuts,,,,US,44.391,-71.18372,"44.391,-71.18372"
Dunkin Donuts,,,,US,44.4688,-71.18398,"44.4688,-71.18398"
Dunkin Donuts,,,,US,42.56605,-71.98078,"42.56605,-71.98078"
Dunkin Donuts,,,,US,42.64099,-72.00416,"42.64099,-72.00416"
Dunkin Donuts,,,,US,42.68101,-72.04846,"42.68101,-72.04846"
Dunkin Donuts,,,,US,43.21175,-71.53866,"43.21175,-71.53866"
Dunkin Donuts,,,,US,42.60977,-71.94098,"42.60977,-71.94098"
Dunkin Donuts,,,,US,42.90122,-72.30493,"42.90122,-72.30493"
Dunkin Donuts,,,,US,43.69983,-72.28983,"43.69983,-72.28983"
Dunkin Donuts,,,,US,42.88749,-72.2407,"42.88749,-72.2407"
Dunkin Donuts,,,,US,42.92327,-72.29015,"42.92327,-72.29015"
Dunkin Donuts,,,,US,42.93318,-72.29343,"42.93318,-72.29343"
Dunkin Donuts,,,,US,42.93254,-72.28564,"42.93254,-72.28564"
Dunkin Donuts,,,,US,43.61052,-72.18976,"43.61052,-72.18976"
Dunkin Donuts,,,,US,42.75102,-72.00988,"42.75102,-72.00988"
Dunkin Donuts,,,,US,43.51708,-73.23259,"43.51708,-73.23259"
Dunkin Donuts,,,,US,42.76862,-71.99335,"42.76862,-71.99335"
Dunkin Donuts,,,,US,43.08958,-72.43876,"43.08958,-72.43876"
Dunkin Donuts,,,,US,42.81743,-72.01698,"42.81743,-72.01698"
Dunkin Donuts,,,,US,42.99932,-71.51597,"42.99932,-71.51597"
Dunkin Donuts,,,,US,43.13681,-72.44888,"43.13681,-72.44888"
Dunkin Donuts,,,,US,43.59372,-73.26545,"43.59372,-73.26545"
Dunkin Donuts,,,,US,43.64513,-72.30944,"43.64513,-72.30944"
Dunkin Donuts,,,,US,42.66511,-71.70709,"42.66511,-71.70709"
Dunkin Donuts,,,,US,42.86476,-71.34865,"42.86476,-71.34865"
Dunkin Donuts,,,,US,42.87027,-71.95073,"42.87027,-71.95073"
Dunkin Donuts,,,,US,42.65074,-71.66453,"42.65074,-71.66453"
Dunkin Donuts,,,,US,42.892,-71.94347,"42.892,-71.94347"
Dunkin Donuts,,,,US,43.39608,-72.70201,"43.39608,-72.70201"
Dunkin Donuts,,,,US,42.61057,-71.57454,"42.61057,-71.57454"
Dunkin Donuts,,,,US,42.98374,-71.47416,"42.98374,-71.47416"
Dunkin Donuts,,,,US,43.00367,-71.3999,"43.00367,-71.3999"
Dunkin Donuts,,,,US,43.64619,-72.34421,"43.64619,-72.34421"
Dunkin Donuts,,,,US,42.61407,-71.5782,"42.61407,-71.5782"
Dunkin Donuts,,,,US,43.04814,-71.46075,"43.04814,-71.46075"
Dunkin Donuts,,,,US,43.29358,-72.47729,"43.29358,-72.47729"
Dunkin Donuts,,,,US,42.72357,-71.66236,"42.72357,-71.66236"
Dunkin Donuts,,,,US,43.60405,-73.00353,"43.60405,-73.00353"
Dunkin Donuts,,,,US,43.6243,-72.32555,"43.6243,-72.32555"
Dunkin Donuts,,,,US,43.41601,-71.9873,"43.41601,-71.9873"
Dunkin Donuts,,,,US,43.58699,-72.9686,"43.58699,-72.9686"
Dunkin Donuts,,,,US,43.61079,-72.9713,"43.61079,-72.9713"
Dunkin Donuts,,,,US,43.50113,-72.13576,"43.50113,-72.13576"
Dunkin Donuts,,,,US,43.62414,-72.97538,"43.62414,-72.97538"
Dunkin Donuts,,,,US,43.34791,-72.3618,"43.34791,-72.3618"
Dunkin Donuts,,,,US,42.94293,-71.4741,"42.94293,-71.4741"
Dunkin Donuts,,,,US,42.98756,-71.42757,"42.98756,-71.42757"
Dunkin Donuts,,,,US,43.28849,-71.83164,"43.28849,-71.83164"
Dunkin Donuts,,,,US,42.98279,-71.43494,"42.98279,-71.43494"
Dunkin Donuts,,,,US,42.80688,-71.56786,"42.80688,-71.56786"
Dunkin Donuts,,,,US,42.7029,-71.44066,"42.7029,-71.44066"
Dunkin Donuts,,,,US,44.01258,-73.16507,"44.01258,-73.16507"
Dunkin Donuts,,,,US,42.80354,-71.55117,"42.80354,-71.55117"
Dunkin Donuts,,,,US,42.71445,-71.44283,"42.71445,-71.44283"
Dunkin Donuts,,,,US,43.37181,-72.32714,"43.37181,-72.32714"
Dunkin Donuts,,,,US,43.37578,-72.32804,"43.37578,-72.32804"
Dunkin Donuts,,,,US,42.75298,-71.46202,"42.75298,-71.46202"
Dunkin Donuts,,,,US,42.99169,-71.47368,"42.99169,-71.47368"
Dunkin Donuts,,,,US,43.11137,-71.91485,"43.11137,-71.91485"
Dunkin Donuts,,,,US,42.88018,-71.48168,"42.88018,-71.48168"
Dunkin Donuts,,,,US,42.96371,-71.44432,"42.96371,-71.44432"
Dunkin Donuts,,,,US,42.91537,-71.38607,"42.91537,-71.38607"
Dunkin Donuts,,,,US,42.83783,-71.49944,"42.83783,-71.49944"
Dunkin Donuts,,,,US,43.63299,-72.31813,"43.63299,-72.31813"
Dunkin Donuts,Eaton Centre Montreal #1254, Montreal, QC H3B4G5,Canada,45.50281,-73.57034,"45.50281,-73.57034"
Dunkin Donuts,Harvard Mbta Station,,,US,42.37355,-71.119,"42.37355,-71.119"
Dunkin Donuts,Hunting Park &amp; G St.,,,US,40.01209,-75.11224,"40.01209,-75.11224"
Dunkin Donuts,Logan Airport,,,US,42.36211,-71.01793,"42.36211,-71.01793"
Dunkin Donuts,Route 128 (North),,,US,42.57474,-70.87605,"42.57474,-70.87605"
